{
"type": "FeatureCollection",
"name": "P_140101_Ambito_Intervencion_WEB",
"crs": { "type": "name", "properties": { "name": "urn:ogc:def:crs:OGC:1.3:CRS84" } },
"features": [
{"type":"Feature","properties":{"COD_AL":"140101","NOM_AL":"METROPOLI CHICLAYO-LAMBAYEQUE","AREA_HAS":89239.892556599996},"geometry":{"type":"MultiPolygon","coordinates":[[[[-79.906654401434565,-6.591721670438914],[-79.904724714729326,-6.592389639667764],[-79.902855573886839,-6.592145499145181],[-79.900634870653747,-6.590887686659437],[-79.89794932413821,-6.591131826842472],[-79.896904402323003,-6.590780264341947],[-79.89585948091522,-6.589916983637861],[-79.89507237181023,-6.589797843040364],[-79.891494246854762,-6.59101463942755],[-79.881775498245915,-6.592497061775684],[-79.879089951120932,-6.593407218007263],[-79.876084092479914,-6.594907218422519],[-79.869171983975534,-6.60096776522615],[-79.867912218516992,-6.601350577520456],[-79.864029406211912,-6.601866203088285],[-79.863716906040722,-6.602112296052218],[-79.858322375408164,-6.602274405439317],[-79.857277453917604,-6.602436515095512],[-79.856353625793631,-6.603022452574316],[-79.85381260980445,-6.6033369058109],[-79.85057042295756,-6.603413077927175],[-79.847771594694549,-6.602475577590457],[-79.846230579195222,-6.603022453098248],[-79.845459095647072,-6.602985343329346],[-79.842041127090752,-6.601332999496556],[-79.841621204987717,-6.601696280987636],[-79.841552845585227,-6.602077140373079],[-79.841621204824236,-6.604915030826255],[-79.842613392568325,-6.606375969060686],[-79.844925892246678,-6.608624015142658],[-79.845162220185955,-6.609549796308952],[-79.84515440832314,-6.612661125297279],[-79.846230580091827,-6.613434562060644],[-79.846459095418567,-6.614207999922571],[-79.846420032825861,-6.615290031339349],[-79.845002064248149,-6.618647453267537],[-79.844742299154916,-6.619831046623229],[-79.844994251478752,-6.620874015530654],[-79.846459095887369,-6.624356437412065],[-79.846703235955516,-6.626239249847447],[-79.847617298704165,-6.629340812254171],[-79.847496204767864,-6.631360343286724],[-79.847839954832253,-6.632944328229495],[-79.847945423716411,-6.635530265280194],[-79.847755970415193,-6.636415031274929],[-79.846687611816421,-6.637831046673446],[-79.846588001956974,-6.639715812348551],[-79.847603626648194,-6.641139640054471],[-79.849556751556776,-6.642643546389438],[-79.84984581405088,-6.643110343485404],[-79.847632923877939,-6.645331046365003],[-79.842652455578815,-6.649336906422417],[-79.84126964325165,-6.650946281132528],[-79.838623159249806,-6.654731437344089],[-79.836630972211438,-6.658258781106753],[-79.835213003680479,-6.659868156420093],[-79.83401573802486,-6.660104484945835],[-79.829025504432465,-6.660153312588466],[-79.827423941650821,-6.660016594259996],[-79.824920035850823,-6.659418937992058],[-79.824615348571541,-6.659655266050724],[-79.818671989254739,-6.659795891281778],[-79.816002068086206,-6.660055657096749],[-79.812828240446109,-6.660780266041519],[-79.809798943681628,-6.66189159388813],[-79.808814568384619,-6.662586906503797],[-79.807793084191317,-6.663706047297855],[-79.806709100344321,-6.665717766683119],[-79.805984490578723,-6.666518547523377],[-79.803994256585696,-6.667645501094459],[-79.802406365768448,-6.669284172192969],[-79.797248163499106,-6.672471672242146],[-79.796927851234855,-6.673358391706097],[-79.796386835498325,-6.673977532197004],[-79.794562616897295,-6.674426751174044],[-79.793213008030733,-6.675043938318353],[-79.789755976898419,-6.678243157652665],[-79.788689570799747,-6.678442376114004],[-79.786697383390845,-6.678100578710046],[-79.783867305312938,-6.679354485829272],[-79.782119258823897,-6.679596672809419],[-79.78051769652248,-6.679368156967888],[-79.778748165608363,-6.680584954471734],[-79.774970821785701,-6.681604485636397],[-79.774162228983585,-6.681557610467789],[-79.772896603982488,-6.681102532553316],[-79.771568478853752,-6.681340813384554],[-79.768851682488801,-6.681221673144165],[-79.765097775962062,-6.681547844889092],[-79.763556760927884,-6.682680657797766],[-79.762947386271421,-6.682875970221455],[-79.759841917378125,-6.68261620452558],[-79.758904417176865,-6.683149407496136],[-79.757857542580638,-6.683293938623151],[-79.757507933206639,-6.682711907984149],[-79.756828246127512,-6.682600579978381],[-79.754509886724762,-6.68366893904023],[-79.752357542844621,-6.683790033339647],[-79.751213012365938,-6.684936517007251],[-79.750472778268829,-6.686565423623884],[-79.749968872034046,-6.688825189552343],[-79.749488402766815,-6.689993157575607],[-79.749472777597163,-6.691065423432188],[-79.749543090705842,-6.692219720453896],[-79.750091918773407,-6.693791985978479],[-79.750617309601779,-6.69522948640654],[-79.750777465405122,-6.696247064639428],[-79.750961059388402,-6.697786126417239],[-79.750953246697861,-6.699299798957486],[-79.751425903236608,-6.701215814290456],[-79.75147277842558,-6.702415033186187],[-79.751525512635908,-6.703198236077194],[-79.751648559398618,-6.7041357361456],[-79.75183801269074,-6.704971674000342],[-79.751832153159924,-6.705495110700412],[-79.750740356284069,-6.706163080283783],[-79.748847778735069,-6.706840814167523],[-79.746949341475343,-6.707526361390463],[-79.745078247119736,-6.708057610806969],[-79.743920044361886,-6.708610345377623],[-79.742775513598986,-6.70871190772626],[-79.740326295054672,-6.709600579778113],[-79.738312623127854,-6.710485345706296],[-79.737388795518697,-6.7105849552866],[-79.735718873503785,-6.711745111128436],[-79.734306764667153,-6.712272454703077],[-79.733009889744096,-6.712872064703276],[-79.732062624043422,-6.713241204993762],[-79.730584107976156,-6.713698236288266],[-79.729140749565687,-6.714497064597708],[-79.728279421350209,-6.715379877070779],[-79.727531374536781,-6.716143548977665],[-79.726714968601229,-6.716909174169449],[-79.726189578041755,-6.718049799208869],[-79.725265749633266,-6.719573236469313],[-79.724152468304126,-6.7216220648389],[-79.723060671865994,-6.723436517805482],[-79.721884891127004,-6.72499706513208],[-79.720886843706722,-6.726702143377701],[-79.720238406584613,-6.728368158355678],[-79.719429813000858,-6.729916986929266],[-79.71843762532518,-6.731532221075004],[-79.717353640856444,-6.732840814528266],[-79.716621219879386,-6.733983392976117],[-79.716193484877749,-6.734727533545973],[-79.715843875893299,-6.735208002191539],[-79.715591922343378,-6.735319330690758],[-79.715949344768049,-6.735532221590351],[-79.716125125738031,-6.736178705866853],[-79.715935672931167,-6.736631830657653],[-79.715392704241964,-6.73726854894581],[-79.71463098505302,-6.737456049573195],[-79.713882938846552,-6.738084955560947],[-79.71327942330629,-6.738487299523171],[-79.712929813966753,-6.73903222123841],[-79.712714970149904,-6.739395502581232],[-79.7136387978708,-6.740243159088254],[-79.714836063280657,-6.741502923882993],[-79.715957157368763,-6.742727533816328],[-79.71719348536827,-6.744166986731266],[-79.717666141534508,-6.745026361330815],[-79.718582156856058,-6.746145502062877],[-79.71943762528737,-6.747200190131342],[-79.720314578520217,-6.748364252171028],[-79.721130985113575,-6.749141595857076],[-79.721664188096312,-6.749901361943749],[-79.722701296946013,-6.750938471342693],[-79.723656375441379,-6.751786127147687],[-79.724089968683558,-6.752268549567641],[-79.724625125267423,-6.752858392864627],[-79.725609500614723,-6.754047846187107],[-79.72609778166759,-6.755178705770171],[-79.726554812350244,-6.75620214275496],[-79.72672278105648,-6.757219721454667],[-79.726517703766817,-6.758518549528057],[-79.726677859789277,-6.759762689314452],[-79.726882937576079,-6.760940424454757],[-79.727142703591753,-6.761983392557509],[-79.727515750028388,-6.76286425252024],[-79.727738406657267,-6.763647455094758],[-79.727646609471407,-6.764764643116094],[-79.727166140657729,-6.765842767459712],[-79.726851688080941,-6.766729487008959],[-79.726173953280735,-6.767520502100145],[-79.724968875468193,-6.767956049037402],[-79.723496219907815,-6.768114252259277],[-79.722031375418226,-6.768065424189804],[-79.720947391183188,-6.768157220720857],[-79.71947473517244,-6.768360345718257],[-79.718230594894607,-6.768336909004966],[-79.71700989181933,-6.768520502683837],[-79.715584110672708,-6.768778314939541],[-79.714310673222855,-6.76932128391879],[-79.713279423883122,-6.769350580788677],[-79.712425908245947,-6.769448237203988],[-79.711373174183393,-6.76945018968214],[-79.710769658657881,-6.769463861936024],[-79.710121221154097,-6.769840815248727],[-79.709564580161782,-6.770108393031983],[-79.7092598924865,-6.770499018081657],[-79.709273564894019,-6.771065424447624],[-79.709380986277495,-6.771416987344796],[-79.709808721000599,-6.771999018384522],[-79.710113408282155,-6.772715815396785],[-79.710320439813643,-6.772995112224406],[-79.710273564506679,-6.774049799573399],[-79.710166142981166,-6.774879877802499],[-79.710045049259477,-6.775403314702553],[-79.709869267578327,-6.776208002429772],[-79.710000127285383,-6.77684667442267],[-79.710013798939769,-6.777334955913575],[-79.709595830143854,-6.777645503043754],[-79.708695440094687,-6.777725580857094],[-79.708160283989258,-6.777920893516189],[-79.707496221539998,-6.777954096013947],[-79.706755987025147,-6.778122065191417],[-79.706138799113319,-6.778247064800732],[-79.705627080908343,-6.778467768471248],[-79.705254033811869,-6.778831049463126],[-79.705078253157637,-6.779653315657572],[-79.705177862237107,-6.780366205530908],[-79.705193487542417,-6.78101464330922],[-79.705345830907291,-6.781518549880269],[-79.705039190575079,-6.781999018550633],[-79.704474737112918,-6.782356439892489],[-79.704109502896316,-6.782602533572955],[-79.703804815095197,-6.782965815175729],[-79.703697393461383,-6.783625971079838],[-79.703773565671824,-6.784409174263833],[-79.703736455802471,-6.785555659114669],[-79.703492315984178,-6.786288080840771],[-79.703392706068129,-6.786811518045009],[-79.703048956000643,-6.787680659017607],[-79.703056768639115,-6.788690424807868],[-79.703048956216833,-6.789383783905663],[-79.703009893410254,-6.789934565631842],[-79.703072393403289,-6.790528315666007],[-79.703248175091588,-6.790997065494063],[-79.703765752760404,-6.791559564926952],[-79.704757940909886,-6.792405268204187],[-79.705550909066304,-6.793174799260461],[-79.706543096954164,-6.793948237457355],[-79.707154424706673,-6.794583002324344],[-79.707923955833721,-6.795243158655956],[-79.708580205439532,-6.79575878348264],[-79.70921301792076,-6.796366205743682],[-79.709709112250124,-6.796956049220232],[-79.710060674337953,-6.797809565469846],[-79.710021612189763,-6.798567377742968],[-79.709640753002972,-6.799409174907534],[-79.709189581250442,-6.800225580741709],[-79.708884893129948,-6.800499018373808],[-79.708648564890908,-6.800979486849004],[-79.708640753195056,-6.801438471885271],[-79.710181768500277,-6.803993159184715],[-79.71340247120564,-6.806368159040301],[-79.716209111663346,-6.807657221726883],[-79.717377080088781,-6.807249018573192],[-79.718414189845831,-6.806383783988318],[-79.720031377068608,-6.80622362769875],[-79.721459111151106,-6.80657909657802],[-79.723480595068523,-6.807686517694846],[-79.72543371968402,-6.808307611541699],[-79.725945438322469,-6.808293939432661],[-79.726998172591195,-6.807641595802696],[-79.72860754816962,-6.807708002454106],[-79.731888797919581,-6.809297846142791],[-79.732382938369355,-6.809131830617198],[-79.733367312678254,-6.808202143096279],[-79.734054812844363,-6.808141596232203],[-79.734923953177287,-6.808764643174949],[-79.735230593990124,-6.809788080484988],[-79.7355802036396,-6.810208001807329],[-79.737273562631486,-6.81104003312475],[-79.737816531764608,-6.811809564362769],[-79.738968874784632,-6.812500970549816],[-79.740630983833412,-6.812963861173065],[-79.742218874287246,-6.813399408141059],[-79.744521608617234,-6.812717767761411],[-79.746933717858553,-6.813000970785494],[-79.748330201919288,-6.813518548787909],[-79.748711061953671,-6.813875970961244],[-79.748679811181745,-6.81415526768199],[-79.749619264316365,-6.814893548676975],[-79.752242311440781,-6.816221673709697],[-79.751777467397076,-6.816704095845589],[-79.75098449884463,-6.820389642845948],[-79.750984499257271,-6.82295800208017],[-79.751304811436597,-6.824541986499024],[-79.752761842410806,-6.826485345589464],[-79.757759888971052,-6.831221673609759],[-79.760238405089211,-6.839204095662572],[-79.761246216753847,-6.841727533433001],[-79.762734498446164,-6.843604485720767],[-79.764267701230054,-6.84473534583891],[-79.765664185569236,-6.845217767716959],[-79.767213013602898,-6.846915033185665],[-79.770171997713319,-6.852969720543535],[-79.771728637853315,-6.858391595571072],[-79.771529419901952,-6.868374017671176],[-79.770468872897084,-6.872836908377359],[-79.770295045201962,-6.875526360977744],[-79.769584107704773,-6.909592767357894],[-79.769035280329405,-6.921344720301233],[-79.769082155805833,-6.927114252261177],[-79.769386843060843,-6.92882518930863],[-79.770828249287462,-6.933209955098237],[-79.770812624214642,-6.935635735795413],[-79.771408327387348,-6.937846673720053],[-79.77143957754609,-6.941885736088564],[-79.772140749184985,-6.943780267207647],[-79.773490358182556,-6.94613768915494],[-79.780433716741044,-6.95368651684299],[-79.780746217335391,-6.955791985997847],[-79.781882936214544,-6.956790032602033],[-79.782623169845394,-6.957928704460108],[-79.783912233050074,-6.96189940753228],[-79.784644654243024,-6.962622064408585],[-79.787093873065118,-6.96414745504798],[-79.788033326162363,-6.965309564333979],[-79.788330201073578,-6.966065423413196],[-79.788046998327275,-6.969907220531736],[-79.788306763845597,-6.971022454804383],[-79.789589966305073,-6.972868158024669],[-79.793328247474548,-6.976561516750299],[-79.793830200765441,-6.977295892136332],[-79.793906372793671,-6.978124017517664],[-79.79372473167038,-6.978928704746553],[-79.792236450489597,-6.981178704523924],[-79.792144653698102,-6.983596673378137],[-79.79292395134317,-6.989889642176849],[-79.79437316950127,-6.994094720218991],[-79.794578247423786,-6.996381829815885],[-79.794929810043598,-6.997108392497712],[-79.795394654337002,-7.000583001249601],[-79.796157207099128,-7.003516061853719],[-79.796546488524669,-7.00507517632156],[-79.796972833226263,-7.004812986247828],[-79.797158081576754,-7.004707850534888],[-79.797608190664874,-7.004365771450269],[-79.797820066690491,-7.004181496004256],[-79.798084995544812,-7.003918149432442],[-79.798297006366695,-7.003681069634415],[-79.798482456753874,-7.003496726256591],[-79.798800302512049,-7.00320711213406],[-79.799144573831114,-7.00291756430035],[-79.799356583661009,-7.002680483846485],[-79.799515742333753,-7.002443268359015],[-79.799833385187085,-7.002232860352847],[-79.800150960309537,-7.002048853230947],[-79.800442379110436,-7.0017591702303],[-79.800680677868712,-7.001574960474172],[-79.800892821159138,-7.001285074956124],[-79.801263245199223,-7.001101201612578],[-79.801475185761873,-7.000890521931666],[-79.801925288275328,-7.000548436596795],[-79.802295913414341,-7.00028535603798],[-79.802613755652018,-6.999995738531409],[-79.802958089690293,-6.999679784983289],[-79.803249505335856,-6.999390099670394],[-79.80351436215669,-6.999153151100998],[-79.803937700651218,-6.998943007462331],[-79.804202980669345,-6.998636661840293],[-79.804421203330733,-6.998301571159876],[-79.804609758726272,-6.997976277441711],[-79.804916777852526,-6.997690771628115],[-79.805236155112823,-6.997520572308415],[-79.80542166752295,-6.997309823160769],[-79.805837179799951,-6.997090920964161],[-79.806233120195344,-6.996805639649569],[-79.806507103952384,-6.996520502720434],[-79.806745598976363,-6.996257081720966],[-79.807010451427402,-6.99602013055182],[-79.807328220055979,-6.99575691095424],[-79.807672413949646,-6.995493758007555],[-79.807990249744591,-6.995204135699424],[-79.808387359192238,-6.994914712848979],[-79.8086520762579,-6.99473056566707],[-79.808916569414293,-6.994492533241292],[-79.80921355377744,-6.994266229728663],[-79.809520417800925,-6.994039951861609],[-79.809698862001085,-6.993803476646655],[-79.810005850452725,-6.993527838007962],[-79.810320518855988,-6.993282644541413],[-79.810585435615081,-6.993019288580798],[-79.810903200335943,-6.992756065855322],[-79.811247590448133,-6.992413702132758],[-79.811882385079585,-6.992177681004833],[-79.812200216172556,-6.991888054997154],[-79.812570829275302,-6.991624964121113],[-79.812809318471352,-6.991361539001766],[-79.813153572971146,-6.991071978746085],[-79.813339145943218,-6.990834823197772],[-79.813604125386163,-6.990545061890992],[-79.814001360907355,-6.990202829504755],[-79.814266273024302,-6.989939469892459],[-79.814490582975608,-6.989790870407448],[-79.814663308875566,-6.989676443396744],[-79.815192998500706,-6.989202529224562],[-79.815510892090103,-6.988886498047933],[-79.815696661476466,-6.988570133641349],[-79.815988329247091,-6.98817482802799],[-79.816385561081503,-6.987832592063933],[-79.816677094078173,-6.98749009029399],[-79.817047768673334,-6.987200591706736],[-79.817365725098114,-6.986858156576333],[-79.817789313726905,-6.986542387593998],[-79.818186410321417,-6.986252954126725],[-79.818477676786756,-6.986016060734781],[-79.81876887579503,-6.98580557026456],[-79.819112923981422,-6.985595211050052],[-79.819351273982875,-6.985384586841033],[-79.819695520265796,-6.985095020320009],[-79.820066388914825,-6.984726311904485],[-79.820410501972276,-6.984489549235363],[-79.820702096119135,-6.984120641816644],[-79.820914152763308,-6.983857145021809],[-79.821126209159004,-6.983593648993315],[-79.821364425067458,-6.983435828889295],[-79.821735357179904,-6.983040715509945],[-79.822079732434716,-6.982698342113887],[-79.8224239081988,-6.982435174340486],[-79.822926828919648,-6.982093195062954],[-79.823297428804793,-6.981830093338984],[-79.823641670176698,-6.981540523051276],[-79.823985712439239,-6.981330159353675],[-79.824250549069362,-6.981093195471152],[-79.82459478935688,-6.980803624290646],[-79.82488604852351,-6.980566725778128],[-79.825230024650367,-6.980382763273389],[-79.825521283267321,-6.9801458642675],[-79.825733269591922,-6.979908767739456],[-79.825892341002614,-6.979697941895284],[-79.826236447743099,-6.979461173819495],[-79.826554130187347,-6.979224339719805],[-79.826871943822056,-6.978934700678415],[-79.827216377287968,-6.978565919100186],[-79.827692734559974,-6.978276672432396],[-79.827904850316202,-6.977986769893409],[-79.828143258370858,-6.977749737521979],[-79.828355570542257,-6.977380626728388],[-79.828726557712656,-6.976959103618033],[-79.82893847534973,-6.976748408372346],[-79.829203371681103,-6.976485037550535],[-79.829547605686074,-6.976195461630174],[-79.830103493789167,-6.97580079892189],[-79.830612881979803,-6.975387090852929],[-79.830850588680548,-6.975150751309743],[-79.831030952953185,-6.974746986607647],[-79.831269685078624,-6.974377939271749],[-79.831525232040974,-6.974020430263764],[-79.831831151669419,-6.973722832837423],[-79.832130353805113,-6.973477868985947],[-79.832482422077149,-6.973162834979176],[-79.832869445407241,-6.972918087637257],[-79.833151082346902,-6.972673079550662],[-79.833643924145179,-6.972253090349835],[-79.834312104836258,-6.971956385293067],[-79.834874985671718,-6.971624319087623],[-79.835297134991379,-6.971379655967859],[-79.83574355019995,-6.971062240458312],[-79.836061417128775,-6.970746189937039],[-79.83643219681278,-6.970403866853694],[-79.836723444851316,-6.970166958875548],[-79.83709396325925,-6.969930245784876],[-79.837332492861876,-6.96964040235746],[-79.83762380415429,-6.969377091213018],[-79.83783577954884,-6.969139987325438],[-79.838179743109251,-6.96895601306819],[-79.838523836426759,-6.96871923359956],[-79.838814886601938,-6.968561532252715],[-79.839132490916242,-6.968351089773479],[-79.839397182170643,-6.968166920620155],[-79.839714721071189,-6.967982880128705],[-79.84000596519472,-6.967745969580332],[-79.840350056832591,-6.96750918847211],[-79.840800102225359,-6.967167055462042],[-79.841276700062792,-6.966772181714689],[-79.841726808934951,-6.966403645094248],[-79.842124199004886,-6.965982172591271],[-79.842627347433009,-6.96553455589321],[-79.843156854460119,-6.965113406559491],[-79.843395183852365,-6.964902766518084],[-79.843765824539261,-6.96461324188471],[-79.84413640014975,-6.964350118492979],[-79.844427575333427,-6.96413960786992],[-79.844718815784859,-6.963902693599668],[-79.845062966182965,-6.963639505643106],[-79.845301229461299,-6.963455266891978],[-79.845751009524307,-6.963218738910721],[-79.846121518540897,-6.962982017024639],[-79.846439180740589,-6.962745165890984],[-79.846730225061421,-6.962587458586258],[-79.846968422762671,-6.962429621336126],[-79.847206749216113,-6.962218979750922],[-79.847656398495289,-6.962035254695199],[-79.847973930570589,-6.961851207397237],[-79.84831155929912,-6.961544524291202],[-79.848768112374515,-6.961245873942572],[-79.849156201068794,-6.960901603993503],[-79.849567075940428,-6.96054720798616],[-79.849923610511595,-6.960192679427694],[-79.850319472511046,-6.959917223645861],[-79.85078465951581,-6.959572829996587],[-79.851180543654024,-6.959287500723398],[-79.851536716154669,-6.959081051364814],[-79.851932720324882,-6.958746361046184],[-79.852347055323264,-6.958490691484894],[-79.852680962106021,-6.958298995164352],[-79.852970338379762,-6.958136807708804],[-79.853222719295587,-6.957952316916818],[-79.853475047034465,-6.957790039314372],[-79.853727391670716,-6.957620356188709],[-79.853949881783464,-6.957539450047653],[-79.854083448987893,-6.957479918850578],[-79.854269147428909,-6.957273676480246],[-79.854462124075184,-6.957140869840623],[-79.854655423598999,-6.956874791049827],[-79.854878128523936,-6.95670503634284],[-79.855197303442466,-6.956476281532999],[-79.855465322266468,-6.956271962347393],[-79.855862373317706,-6.955982488784299],[-79.856338692707624,-6.955693207209105],[-79.856841434488715,-6.955403987952453],[-79.857344303349379,-6.95506196276129],[-79.857608980874659,-6.954877780922291],[-79.857800331785242,-6.954603424742613],[-79.858087770784579,-6.954219105327481],[-79.858424439680761,-6.953904009471326],[-79.858830242761798,-6.953598951677296],[-79.859176600361778,-6.953362855403732],[-79.859483439713998,-6.953126663651696],[-79.859938591969197,-6.952841467981153],[-79.860344273402958,-6.952585768994919],[-79.860799496039803,-6.952270956239619],[-79.861185465656376,-6.951995464491587],[-79.861500744685216,-6.951745193247943],[-79.861845005742651,-6.951429183682964],[-79.862189139321586,-6.951165980088047],[-79.862506848905397,-6.950902712733215],[-79.862771395349114,-6.950771331772023],[-79.86298322315875,-6.950587019306567],[-79.863300932850876,-6.950323751279901],[-79.863565605647125,-6.950139564361219],[-79.863909674012916,-6.949902761908666],[-79.864200769036003,-6.94971863881309],[-79.864544583358196,-6.949587446677269],[-79.864888460867121,-6.949429852440522],[-79.86517942863162,-6.949298534084839],[-79.865549729336507,-6.94914100257748],[-79.865920028930319,-6.948983469833066],[-79.866263842408685,-6.948852277185883],[-79.866475603975644,-6.94869436552117],[-79.866611282648293,-6.948393777743499],[-79.866680817977979,-6.948164162985881],[-79.866696772239365,-6.947903783573632],[-79.866651350014067,-6.947666234323314],[-79.866598190059335,-6.947459304888497],[-79.866489905081679,-6.94725451011833],[-79.866307115209111,-6.947004183827677],[-79.866120127611154,-6.94676634209011],[-79.865870622393444,-6.946528351641107],[-79.865562875628612,-6.94624440806633],[-79.86516769358488,-6.945922771154458],[-79.864968014246685,-6.945764030496686],[-79.864759949180112,-6.945626094080753],[-79.864639389677251,-6.945496696003962],[-79.864477491176672,-6.945225595802738],[-79.864336401759317,-6.944967039140955],[-79.86427045465787,-6.944658685741252],[-79.864284167324968,-6.944154776654158],[-79.864314451773595,-6.943692555101945],[-79.864403165374398,-6.94319715532976],[-79.864499855095147,-6.942851707463226],[-79.864746768246647,-6.942431652243731],[-79.865117884052424,-6.941905523641722],[-79.86547825035737,-6.941554627540425],[-79.865749769609323,-6.941301222830407],[-79.865962938515864,-6.941047679339478],[-79.866259534533526,-6.940765180930931],[-79.86642668726806,-6.940582328334801],[-79.866619129593602,-6.940499492301235],[-79.866784816043605,-6.940493640306347],[-79.866909874310693,-6.940484568240845],[-79.867013237968351,-6.940397354395616],[-79.867038604057385,-6.9402474810559],[-79.867042087867361,-6.940097556364307],[-79.866998617402928,-6.939975631820999],[-79.866920746025656,-6.939859871996586],[-79.86687409714996,-6.939759805258526],[-79.866811766089086,-6.93968156646567],[-79.866724405151686,-6.93961263773912],[-79.866646489967309,-6.9395156201993],[-79.866587329968695,-6.939418646545929],[-79.866546955027729,-6.939309224022368],[-79.866522186670352,-6.939209209532303],[-79.86649421087354,-6.939143546515306],[-79.866460896482408,-6.939087882738258],[-79.86644145180162,-6.938984116744612],[-79.866438535778073,-6.938896648191191],[-79.866410588988217,-6.938818491505253],[-79.866345041156364,-6.938700264856687],[-79.866247027727269,-6.938574907027419],[-79.866106904578601,-6.93834614959766],[-79.866019490370334,-6.93813508927087],[-79.866000096300752,-6.937930405774754],[-79.866003841892038,-6.937671154778057],[-79.866001082866674,-6.937518091326242],[-79.865998502296165,-6.937290061360344],[-79.866070965257606,-6.937052839914678],[-79.866159206469476,-6.936753184733186],[-79.866209900122229,-6.936469056556806],[-79.866183613907594,-6.936253696124852],[-79.866181564440922,-6.936021503427525],[-79.866186582158548,-6.935763065794732],[-79.866136059023901,-6.935443526366395],[-79.866111813764732,-6.935124860061217],[-79.866031236365529,-6.93483417239697],[-79.86601013220978,-6.93450926672744],[-79.866001598875798,-6.934156277906173],[-79.866133937496798,-6.933716164764001],[-79.866249473238966,-6.933307016049878],[-79.866372405571667,-6.93302410208677],[-79.866562260455041,-6.93264139241915],[-79.866802182259065,-6.932236589364216],[-79.867147959596423,-6.931778636731348],[-79.867326202165245,-6.931543703829502],[-79.86744348334679,-6.931299647258461],[-79.867671759188042,-6.93111693926011],[-79.867989264974952,-6.930801170168063],[-79.868245524663308,-6.930535232612191],[-79.868524197012633,-6.930191604628923],[-79.868713823712767,-6.929903295312699],[-79.86888675327765,-6.92962605249574],[-79.869231883948743,-6.929376984389989],[-79.869767662463872,-6.928765183173535],[-79.870857186663542,-6.927631204448433],[-79.871705635100312,-6.926900763934027],[-79.873045161326189,-6.925807843283716],[-79.873340524875445,-6.925453145498805],[-79.873641550420103,-6.925054035342412],[-79.874242953935138,-6.924527914546608],[-79.874749953868317,-6.923973804335078],[-79.875724525962028,-6.923087612672986],[-79.876447288627475,-6.922385932342825],[-79.876623218959679,-6.922215133051598],[-79.877138094696448,-6.921722739099312],[-79.877563312388745,-6.921546042964281],[-79.878018888549889,-6.921063379716855],[-79.878642570118444,-6.920512007320514],[-79.879157278970766,-6.920088715839549],[-79.880028490171227,-6.919300990493787],[-79.88129241757872,-6.918323353231398],[-79.882928829294855,-6.916839754363403],[-79.884116270257906,-6.91600340110717],[-79.884541526315672,-6.915806952904144],[-79.884916778510359,-6.915591029592451],[-79.885204708929351,-6.915255662035122],[-79.885442590037968,-6.914920563278647],[-79.885858498136443,-6.914497031273701],[-79.886323683470195,-6.914122974340557],[-79.88749674389895,-6.913172792002634],[-79.888914813030766,-6.912014268784759],[-79.890307337234873,-6.910969338209303],[-79.891902752679471,-6.909621787568091],[-79.893358624971839,-6.908501221367411],[-79.894586496671323,-6.907607436267537],[-79.897194455953297,-6.905567634460394],[-79.89892843299647,-6.90439717562243],[-79.899638999671424,-6.903757695627342],[-79.900109072921978,-6.903370092669151],[-79.901220231525613,-6.902445015698555],[-79.902359243453148,-6.901604458641715],[-79.903605841959518,-6.900787924941426],[-79.904738887716306,-6.900015769757601],[-79.906308115344615,-6.89903432992104],[-79.908130332701433,-6.897939804451662],[-79.908866955614045,-6.89741452694117],[-79.909542119253672,-6.897001432787536],[-79.910128187776706,-6.896669579862253],[-79.912053721051706,-6.895277166803394],[-79.912911152390365,-6.894654567696562],[-79.91363353819051,-6.894201415041469],[-79.913933500865738,-6.893970036585308],[-79.914208203936937,-6.893718917103644],[-79.914445912443057,-6.893445500245082],[-79.914891187885871,-6.893120724878353],[-79.915425179150006,-6.892799715755016],[-79.915662600416695,-6.892652170472171],[-79.915766896671784,-6.892400662069753],[-79.91601223163066,-6.89203100712358],[-79.916154278646317,-6.891468606215741],[-79.916444553384039,-6.890884329180736],[-79.917385392352458,-6.889679751724337],[-79.917861053888558,-6.889021850183163],[-79.918222330701411,-6.888479917241367],[-79.918618969899811,-6.888046203639503],[-79.918953172142594,-6.887691555011017],[-79.9190727028531,-6.8872549746742],[-79.919324017964016,-6.886986473673513],[-79.919652467630868,-6.886427008245858],[-79.920224218371715,-6.885865575811924],[-79.920446917630983,-6.885673567825356],[-79.920544202765015,-6.885244340351531],[-79.920767052169978,-6.884985694867463],[-79.921079040563512,-6.88462358931868],[-79.922177981130261,-6.883545044767875],[-79.923143007140467,-6.88271053660225],[-79.92343288327794,-6.882296549994707],[-79.923560049736096,-6.881756324556482],[-79.923828249425014,-6.881097947553554],[-79.924266847844819,-6.880439953376789],[-79.924950082946296,-6.879715870508068],[-79.925603165347681,-6.879221250631914],[-79.92616652734668,-6.879089237705318],[-79.926529953165641,-6.878912350195385],[-79.926938446656095,-6.878461605833738],[-79.927355956555274,-6.877981071564098],[-79.927891886404311,-6.877488342369603],[-79.928666774295792,-6.876813250937179],[-79.928994466042411,-6.876424593634017],[-79.929345906892493,-6.875919081246389],[-79.929356807269784,-6.87590340171167],[-79.930014030021994,-6.875219664553649],[-79.93046971159221,-6.874846390674647],[-79.930727538277324,-6.874402709214917],[-79.931301973763922,-6.873732668977896],[-79.931698005066281,-6.873328784182403],[-79.932005441009451,-6.872786488270896],[-79.932264674828332,-6.871710976001771],[-79.932391206411751,-6.870670025141398],[-79.932445181267894,-6.870090965051899],[-79.932660958813244,-6.869713815186027],[-79.932908449494562,-6.869065267520472],[-79.933252210288757,-6.868473688892604],[-79.934121191770146,-6.866269416428675],[-79.934905895138471,-6.865016413097516],[-79.935289522297637,-6.863900620668502],[-79.935104650622876,-6.862800350718382],[-79.93515361159011,-6.861841008264713],[-79.935366161279319,-6.861022436291392],[-79.935484843879735,-6.860297260020992],[-79.935439210470435,-6.859758930203865],[-79.9356512906581,-6.859150967713353],[-79.935666773179676,-6.857979917641677],[-79.93627406736131,-6.855928279354862],[-79.936269561162447,-6.854869907035378],[-79.9363036995003,-6.854322977922847],[-79.936553383150155,-6.853583464949123],[-79.936802797823375,-6.852607544237469],[-79.93725007223378,-6.851718410521586],[-79.937469719816136,-6.851153222559568],[-79.937445593312702,-6.850152764334781],[-79.937500023005398,-6.849363091787285],[-79.937831260062666,-6.848468724882045],[-79.938017332258937,-6.847705668763491],[-79.93813714445605,-6.847126751492796],[-79.938388949774875,-6.846416492773256],[-79.938712798020731,-6.844711917776904],[-79.938604177602485,-6.843487757523385],[-79.938467221553381,-6.842514224931072],[-79.937946450585528,-6.841411864693065],[-79.937957414489603,-6.840253586307998],[-79.937846712222679,-6.83886675428466],[-79.938040622904452,-6.837533307440009],[-79.938373270925524,-6.835993943255212],[-79.938467493549808,-6.835072724521525],[-79.938851713398577,-6.834033676026473],[-79.939142959807455,-6.833349828975608],[-79.939513600334521,-6.832495034199733],[-79.939989222102426,-6.831811592968966],[-79.940477837649894,-6.831207158131069],[-79.940478880565408,-6.830733283888748],[-79.940559550216918,-6.829983156233749],[-79.94061361904086,-6.829351438736816],[-79.940773277267809,-6.828614647905961],[-79.940741268681194,-6.827449630179108],[-79.940891576881285,-6.826472589852166],[-79.941220285638579,-6.825712357391843],[-79.942070780156527,-6.824208840898741],[-79.942731921970093,-6.823198861169933],[-79.942970088408629,-6.821905693900963],[-79.942925859155665,-6.820611907811171],[-79.943068912186504,-6.819765442672844],[-79.94321760680451,-6.819483714661875],[-79.943485985737667,-6.81897522273844],[-79.944179803887806,-6.817871026066824],[-79.944667663236643,-6.817311667231416],[-79.945002063671581,-6.81674736428211],[-79.945418173569848,-6.816165797926171],[-79.945715541808767,-6.81568269658497],[-79.945815433973721,-6.815169547657885],[-79.946056355854466,-6.814751466924671],[-79.946212498464291,-6.814262148078093],[-79.947035155782444,-6.812950904443532],[-79.947521452411962,-6.811885738202851],[-79.947791549962915,-6.810597873308548],[-79.948084117871247,-6.809708861611033],[-79.948898078269849,-6.808468107704141],[-79.949440850365221,-6.807166121636826],[-79.949600282678063,-6.806521465843819],[-79.949930856132042,-6.805903509305239],[-79.950710995859126,-6.805016279316575],[-79.951422065239171,-6.804199766518805],[-79.952161713544456,-6.803350431784212],[-79.952737272546216,-6.802567576072524],[-79.953068123864867,-6.801817983231374],[-79.953425255373816,-6.801094773730357],[-79.953755506300908,-6.800621608683163],[-79.954061770818399,-6.799794023600112],[-79.954149431497626,-6.799206671686404],[-79.954367701908836,-6.798753009164532],[-79.954744062337497,-6.798270069544254],[-79.955110417686328,-6.797846343514111],[-79.955536053644735,-6.79741287191733],[-79.956249540641764,-6.796318563592136],[-79.957211282508212,-6.794431697357703],[-79.958222864772168,-6.792498862911324],[-79.958601247068742,-6.791723648479326],[-79.959089581844054,-6.79112607917697],[-79.959446793639145,-6.790448620913152],[-79.959895690932726,-6.789909886714452],[-79.960676205168937,-6.788252978722829],[-79.961336362831702,-6.787451429068646],[-79.96196674884672,-6.786476094958855],[-79.962432420295045,-6.785760253071342],[-79.963170215718165,-6.784902708044787],[-79.964066865020513,-6.783752054995614],[-79.964485064916516,-6.783195670079629],[-79.964995336316676,-6.782687774681398],[-79.965224790521745,-6.782126627644038],[-79.965278775135147,-6.781512451385192],[-79.965508378011464,-6.780881099249962],[-79.966087459434462,-6.780009162275684],[-79.966641826334026,-6.779404827846394],[-79.967183052140811,-6.778787300180788],[-79.967658853597172,-6.777972182411572],[-79.968016137895475,-6.777156812086461],[-79.968162389847791,-6.776498953581187],[-79.968308669254569,-6.775827931482806],[-79.968807617317054,-6.775235697644259],[-79.968996501828343,-6.774381418508705],[-79.969419091149319,-6.773816289345347],[-79.969640006678091,-6.773304756484043],[-79.970132834172105,-6.772567279963371],[-79.970758017828246,-6.771745069881299],[-79.971374725648218,-6.770843036380387],[-79.971450726157997,-6.769932455063245],[-79.971849998026215,-6.769092790662103],[-79.973161804069349,-6.767023807037053],[-79.973518600227436,-6.765470162434828],[-79.974311230460685,-6.764267381986437],[-79.974638989783585,-6.7638688054969],[-79.975450391114649,-6.762650680550641],[-79.975717752232413,-6.762315575956901],[-79.97594575295669,-6.761911280965673],[-79.976440573077895,-6.761428565515168],[-79.977123743204544,-6.760610577678055],[-79.977599161270604,-6.759959986549889],[-79.977936003289571,-6.759457192793827],[-79.978104599805263,-6.759121879015537],[-79.978520282683562,-6.758698230697153],[-79.979433177595737,-6.757511009247521],[-79.980177375612186,-6.75652340680495],[-79.980437723323121,-6.756177905131076],[-79.9817527870389,-6.754669317743069],[-79.98269705863413,-6.753595661951862],[-79.983247199098216,-6.75274678267956],[-79.98352526833628,-6.752006918540092],[-79.984663236110265,-6.750933176513861],[-79.985692359453253,-6.749957931739452],[-79.986701931240574,-6.748883916379565],[-79.987563178628577,-6.747898444360111],[-79.98853438888905,-6.747047338131153],[-79.989563515893096,-6.746062209516505],[-79.990523325192498,-6.745165788764092],[-79.991868692909307,-6.744072709434146],[-79.993125600820207,-6.74277211689148],[-79.994204251956234,-6.741708096769495],[-79.99526292231144,-6.740752631225999],[-79.996291962645088,-6.739797101839754],[-79.997073397483462,-6.739186604277284],[-79.997854891251166,-6.738546486578472],[-79.998673709147909,-6.737939965337999],[-79.999974985337445,-6.736928306390589],[-80.000829288241519,-6.736229094350109],[-80.001694542145458,-6.735563249791386],[-80.002382258853686,-6.735008058544914],[-80.003262454972784,-6.734387877117733],[-80.004330787496343,-6.733521260940458],[-80.004874828036307,-6.733087971409461],[-80.005458490827309,-6.732595525991382],[-80.005963026840519,-6.732162154566263],[-80.006643947604076,-6.731727639486363],[-80.008181014257516,-6.730658068714722],[-80.009469473842927,-6.729637710265778],[-80.010757986445924,-6.72838292958797],[-80.01197866058618,-6.727201833458025],[-80.012552454941357,-6.72651822196711],[-80.013293031782652,-6.725745387467364],[-80.014239690562206,-6.724965862904318],[-80.015403852633412,-6.723699583069119],[-80.016201382319679,-6.722882118354335],[-80.017280232454453,-6.721854598475532],[-80.018288665207052,-6.720920543191657],[-80.019179819211388,-6.720103258965104],[-80.020047375174912,-6.719379534341055],[-80.021035467044072,-6.718369373592642],[-80.022140243172274,-6.717520997397947],[-80.023198647883774,-6.716478128865433],[-80.024272679077242,-6.715584995978183],[-80.025062697140456,-6.714919755773017],[-80.02609423892595,-6.713925261522731],[-80.027013475151691,-6.713103806384094],[-80.027865684232793,-6.712275361103522],[-80.028720630720073,-6.711491234324768],[-80.029755413479734,-6.710617652924836],[-80.031052941656242,-6.709651936558073],[-80.032174613195622,-6.708653294174465],[-80.033016986595868,-6.707974750294198],[-80.034181147664199,-6.707029934701147],[-80.035748583197261,-6.70584382636577],[-80.036958289362872,-6.705031741700534],[-80.038012806604002,-6.70418455298754],[-80.039142902511145,-6.703361650957596],[-80.040176698394177,-6.702515582732415],[-80.041812157973936,-6.701395265500087],[-80.043155257640706,-6.700362896801456],[-80.044442570992231,-6.699429322266177],[-80.045332800734784,-6.698665067747073],[-80.046281597762189,-6.697852988998156],[-80.047289616415966,-6.697060296457835],[-80.048202703217186,-6.696357358657297],[-80.049154243518345,-6.695577894073377],[-80.049777870237762,-6.69517435987939],[-80.050546579591668,-6.694446971503178],[-80.051218502525671,-6.693866072659644],[-80.05225454671033,-6.69296420576709],[-80.053443785946797,-6.692077951250787],[-80.054441411874095,-6.691229623564942],[-80.055224087305021,-6.690603018138731],[-80.056106432277531,-6.689938302812586],[-80.057128614916024,-6.68917399449084],[-80.058131804907845,-6.688362252933393],[-80.05882162471832,-6.687737678670282],[-80.059544351328142,-6.68701880979881],[-80.060336238555919,-6.686298569252247],[-80.060918022972075,-6.68582648895613],[-80.061478165999588,-6.685375623854682],[-80.062101756040818,-6.684915676582444],[-80.062790084558586,-6.684420636202123],[-80.063457556704236,-6.68393167295355],[-80.06418440900201,-6.683414557063507],[-80.064878686671321,-6.682881174976805],[-80.065552161507199,-6.682327072850543],[-80.066366668417885,-6.681717911987469],[-80.06714801285608,-6.681119833622342],[-80.067636050391911,-6.680707990519362],[-80.068151642391285,-6.680392106670898],[-80.068544801482531,-6.679928559506295],[-80.06903697038139,-6.679596006591696],[-80.069564182890872,-6.679298622595673],[-80.070075726268584,-6.678930263652186],[-80.070770103794828,-6.67833746005545],[-80.071246300833252,-6.677902674901122],[-80.071920644344942,-6.677428654663438],[-80.072634675866212,-6.676915100274876],[-80.073163065789558,-6.676581290003768],[-80.073801096800281,-6.676024421010829],[-80.074451515780837,-6.675551744552735],[-80.075133701123065,-6.675157258587125],[-80.075589935570463,-6.674801645404065],[-80.076026510633383,-6.674366780229341],[-80.077057967040219,-6.673576560289099],[-80.077474473997086,-6.673280282267867],[-80.077935283392918,-6.672898153408903],[-80.078380220593701,-6.672584927656681],[-80.079001508805959,-6.672195431892025],[-80.079444008244394,-6.671857659699521],[-80.079973575104788,-6.671462999356091],[-80.080620166951903,-6.671049460770895],[-80.08110401838708,-6.670692756800994],[-80.08175010271583,-6.670303982393324],[-80.082291869786772,-6.669952149715032],[-80.082692214425393,-6.669741189937495],[-80.083045680621524,-6.669436051628314],[-80.083610884581006,-6.669131305411571],[-80.083979538172557,-6.668816738899606],[-80.084455514603107,-6.668498171614828],[-80.084951293884501,-6.668165014807628],[-80.085566117638294,-6.667730468737791],[-80.086108049066553,-6.667324685426968],[-80.086673424092012,-6.666925845180365],[-80.087132921018238,-6.666624352864575],[-80.087723278664498,-6.666282837348712],[-80.088152868352424,-6.665977231967204],[-80.088567107436987,-6.665686919066361],[-80.088981246171628,-6.665450225047977],[-80.089574791772932,-6.665013681834079],[-80.090001669122316,-6.664672207113109],[-80.09052563162804,-6.664337492808212],[-80.09109902012473,-6.663973250155346],[-80.091553861035138,-6.663638407316132],[-80.092209691410176,-6.663267052596493],[-80.092804588154607,-6.662891871972034],[-80.093458903784523,-6.662516799575995],[-80.093951661938476,-6.662188565041671],[-80.094509935137197,-6.661825590665318],[-80.095045262916969,-6.661529512732313],[-80.095512300087293,-6.661233103768052],[-80.095997220741012,-6.660857922549945],[-80.096505788973261,-6.660561668974268],[-80.097148695914342,-6.660189752935565],[-80.097649601751442,-6.659912708215855],[-80.098062692407325,-6.659629996020837],[-80.098416320456707,-6.659396851837656],[-80.09878371138872,-6.659148733140515],[-80.099130300955892,-6.658883251408898],[-80.099606166853405,-6.658606863322552],[-80.100082104405431,-6.658290867687378],[-80.100498549067311,-6.658014370381311],[-80.101048549571757,-6.657654363411679],[-80.10152975634422,-6.657323107744391],[-80.102028639599993,-6.656941178242162],[-80.102443857669442,-6.656667957381713],[-80.102933226223385,-6.656343038267374],[-80.103415148644757,-6.656040318709722],[-80.103800742578457,-6.655767042770199],[-80.104178862876182,-6.655530776868488],[-80.104653404543427,-6.655213233117402],[-80.105099219767922,-6.654972910184562],[-80.105617191196501,-6.654637408196424],[-80.105854467962388,-6.654474933008681],[-80.10605483725513,-6.654245748195315],[-80.106610932921015,-6.653876517184113],[-80.107166840594289,-6.653610950045248],[-80.107604337573363,-6.653300741217419],[-80.108086226907872,-6.653012825652321],[-80.108486600737805,-6.652754381439478],[-80.108798026460164,-6.652540205731329],[-80.109031865790882,-6.652343451853472],[-80.109151612871031,-6.652208363944732],[-80.109373163704348,-6.652041174909708],[-80.109687648475713,-6.65182726091219],[-80.109963759972828,-6.651651577891012],[-80.11030125536108,-6.651422384368629],[-80.110761340297941,-6.651185751617728],[-80.111149796304588,-6.650852528077207],[-80.111572330151404,-6.650623739569988],[-80.111883819807531,-6.650372537639917],[-80.112187849936021,-6.650150940944337],[-80.112558557274369,-6.64991465418737],[-80.112914438893085,-6.649685744789132],[-80.113189127640638,-6.649514769557319],[-80.113030943016454,-6.649503255722411],[-80.11265786522965,-6.64948181582661],[-80.112509692061096,-6.649473301023563],[-80.102287196465454,-6.648885730035351],[-80.022353610055788,-6.645055653612935],[-80.003785252963638,-6.643711903786031],[-79.989951269687239,-6.642040028570543],[-79.974998145857356,-6.641946278768757],[-79.970908302416603,-6.641104482186607],[-79.961654396832216,-6.640250967115376],[-79.957748148018695,-6.640165028906997],[-79.955109476329767,-6.639497060331935],[-79.95283603877985,-6.639258779042804],[-79.950164164213987,-6.638024404531938],[-79.949943460757595,-6.637709951517423],[-79.95005088239877,-6.636961904774582],[-79.961945412355391,-6.616977529509997],[-79.9637754900955,-6.613506826191062],[-79.9610215846957,-6.612534169892766],[-79.955566506681393,-6.609866200911015],[-79.953933694558742,-6.609305654174927],[-79.952629006859183,-6.609643544899257],[-79.950332132134818,-6.612307607840242],[-79.94802158558673,-6.613385732738626],[-79.946670023530032,-6.613471670023271],[-79.943466898273144,-6.612366201462256],[-79.941879008433759,-6.61210252980113],[-79.940681742256714,-6.611223623433987],[-79.939826273743421,-6.610032217056427],[-79.939048929707283,-6.605940420316402],[-79.938111429727385,-6.604938466915688],[-79.936775493031789,-6.60429393619877],[-79.936324321243248,-6.603776358102886],[-79.936004007958843,-6.599209951660264],[-79.935486430575423,-6.599098623065952],[-79.934455180803482,-6.598243155054319],[-79.932289164995595,-6.597499014167489],[-79.926962993276916,-6.594342763868161],[-79.922271587369821,-6.592297842041604],[-79.919197368885435,-6.590127920321404],[-79.917640729019013,-6.589594717755742],[-79.915322369357398,-6.589922842036827],[-79.912117291687522,-6.590928701729894],[-79.906654401434565,-6.591721670438914]]]]}}
]
}
