{
"type": "FeatureCollection",
"name": "P_140101_Sectores_Catastrales_WEB",
"crs": { "type": "name", "properties": { "name": "urn:ogc:def:crs:OGC:1.3:CRS84" } },
"features": [
{"type":"Feature","properties":{"ID_UBI_GEO":"140101","COD_SECTOR":"06","ID_SECTOR":"14010106"},"geometry":{"type":"MultiPolygon","coordinates":[[[[-79.834681708520506,-6.763298513767524,0.0],[-79.835428132766395,-6.766962272819448,0.0],[-79.84024165994829,-6.766550126180919,0.0],[-79.84043612760334,-6.766495382599952,0.0],[-79.845723989152475,-6.766002342831874,0.0],[-79.845747251672279,-6.765547268378778,0.0],[-79.845922866887776,-6.765138647494765,0.0],[-79.845941735305203,-6.764893922787582,0.0],[-79.845127536821082,-6.762472886049745,0.0],[-79.844146108861807,-6.762416411811524,0.0],[-79.842992610234049,-6.762470829794848,0.0],[-79.841407112552801,-6.762686870091035,0.0],[-79.839540752036044,-6.762610869626663,0.0],[-79.839081343800927,-6.762655389501343,0.0],[-79.834681708520506,-6.763298513767524,0.0]]]]}},
{"type":"Feature","properties":{"ID_UBI_GEO":"140101","COD_SECTOR":"01","ID_SECTOR":"14010101"},"geometry":{"type":"MultiPolygon","coordinates":[[[[-79.817761225135882,-6.759623964665932,0.0],[-79.825565020809947,-6.762834951255953,0.0],[-79.828616802757566,-6.762662112665238,0.0],[-79.829755443581504,-6.763139776598084,0.0],[-79.830888120190991,-6.763543389253139,0.0],[-79.831151818657261,-6.763536936857232,0.0],[-79.830919386733186,-6.76323957174822,0.0],[-79.830537541215335,-6.762751051320813,0.0],[-79.82990181825167,-6.762401082037625,0.0],[-79.829501648469986,-6.762180785551752,0.0],[-79.820587247557427,-6.757436040738648,0.0],[-79.820471055890792,-6.757369196084952,0.0],[-79.817659673043607,-6.759246331658139,0.0],[-79.817662009341461,-6.759627661319795,0.0],[-79.817761225135882,-6.759623964665932,0.0]]]]}},
{"type":"Feature","properties":{"ID_UBI_GEO":"140101","COD_SECTOR":"05","ID_SECTOR":"14010105"},"geometry":{"type":"MultiPolygon","coordinates":[[[[-79.845723989152489,-6.766002342831555,0.0],[-79.845606406815492,-6.769556882602722,0.0],[-79.849198156499099,-6.765966740816722,0.0],[-79.850957309695005,-6.76430470252645,0.0],[-79.855689737563495,-6.759493952761631,0.0],[-79.855909472048239,-6.759137416287409,0.0],[-79.85104679589432,-6.760046099166983,0.0],[-79.848598205476961,-6.761062302230187,0.0],[-79.845127536821082,-6.762472886049745,0.0],[-79.845941735305203,-6.764893922787582,0.0],[-79.845922866887776,-6.765138647494765,0.0],[-79.845747251672279,-6.765547268378778,0.0],[-79.845723989152489,-6.766002342831555,0.0]]]]}},
{"type":"Feature","properties":{"ID_UBI_GEO":"140101","COD_SECTOR":"12","ID_SECTOR":"14010112"},"geometry":{"type":"MultiPolygon","coordinates":[[[[-79.835428132766395,-6.766962272819448,0.0],[-79.836017302050394,-6.769472514275968,0.0],[-79.836094453762144,-6.771536413908303,0.0],[-79.838432215990537,-6.771362443681692,0.0],[-79.84029249812906,-6.771122147712817,0.0],[-79.84215145992593,-6.770825596169272,0.0],[-79.843006214548652,-6.770807269153396,0.0],[-79.845173111503783,-6.770579734735152,0.0],[-79.845325021902127,-6.770068155002993,0.0],[-79.845606406815492,-6.769556882602722,0.0],[-79.845723989152489,-6.766002342831874,0.0],[-79.84043612760334,-6.766495382599952,0.0],[-79.84024165994829,-6.766550126180919,0.0],[-79.835428132766395,-6.766962272819448,0.0]]]]}},
{"type":"Feature","properties":{"ID_UBI_GEO":"140101","COD_SECTOR":"21","ID_SECTOR":"14010121"},"geometry":{"type":"MultiPolygon","coordinates":[[[[-79.836094453762144,-6.771536413908303,0.0],[-79.836152788656449,-6.773092684889039,0.0],[-79.835619004171775,-6.775537340518643,0.0],[-79.836657343308815,-6.775818479990134,0.0],[-79.836726902093048,-6.77589334560529,0.0],[-79.837115370576925,-6.775843459423399,0.0],[-79.840198811109346,-6.775449488240123,0.0],[-79.840926905493319,-6.775357179956342,0.0],[-79.841281731555299,-6.775488672496677,0.0],[-79.841913384040893,-6.775708736497322,0.0],[-79.842835666490046,-6.776056219064185,0.0],[-79.843266582439071,-6.776290669284342,0.0],[-79.843333256159355,-6.776316569354963,0.0],[-79.843491394356903,-6.776377999542354,0.0],[-79.844239753609841,-6.776506509696426,0.0],[-79.845941410582981,-6.776870352818656,0.0],[-79.845602207877121,-6.774610166388051,0.0],[-79.845100079318826,-6.771209273087938,0.0],[-79.845173111503783,-6.770579734735152,0.0],[-79.843006214548652,-6.770807269153396,0.0],[-79.84215145992593,-6.770825596169272,0.0],[-79.84029249812906,-6.771122147712817,0.0],[-79.838432215990537,-6.771362443681692,0.0],[-79.836094453762144,-6.771536413908303,0.0]]]]}},
{"type":"Feature","properties":{"ID_UBI_GEO":"140101","COD_SECTOR":"15","ID_SECTOR":"14010115"},"geometry":{"type":"MultiPolygon","coordinates":[[[[-79.817960277731416,-6.760432657367915,0.0],[-79.823680250519075,-6.766213412753487,0.0],[-79.82407343611078,-6.766124288783067,0.0],[-79.826449112127833,-6.766175480444821,0.0],[-79.826448333080094,-6.76604138213703,0.0],[-79.82883872106224,-6.766099174145646,0.0],[-79.82884421333172,-6.76585539536179,0.0],[-79.829776449932979,-6.765845303230099,0.0],[-79.82975544357295,-6.763139776595048,0.0],[-79.828616802757566,-6.762662112665238,0.0],[-79.825565020809947,-6.762834951255953,0.0],[-79.817761225135882,-6.759623964665932,0.0],[-79.817345376150342,-6.759639458531831,0.0],[-79.817960277731416,-6.760432657367915,0.0]]]]}},
{"type":"Feature","properties":{"ID_UBI_GEO":"140101","COD_SECTOR":"27","ID_SECTOR":"14010127"},"geometry":{"type":"MultiPolygon","coordinates":[[[[-79.835493719162088,-6.77654544703878,0.0],[-79.834565900130571,-6.779620949450123,0.0],[-79.836401688458892,-6.780031901359035,0.0],[-79.83740909186821,-6.780093733165369,0.0],[-79.83807316734935,-6.779869738842673,0.0],[-79.838588777856387,-6.779555840780675,0.0],[-79.83899059193007,-6.779432552338712,0.0],[-79.83930389832905,-6.779612392368335,0.0],[-79.839705465518094,-6.779797728738273,0.0],[-79.840291646100795,-6.779981739782142,0.0],[-79.840802239019027,-6.780085107301273,0.0],[-79.841367826819905,-6.780142745954024,0.0],[-79.842570248118278,-6.780209562158346,0.0],[-79.843004968728692,-6.780235157720082,0.0],[-79.843031250153814,-6.779766558540564,0.0],[-79.843166965588267,-6.779563715040226,0.0],[-79.843366724161413,-6.779437288624487,0.0],[-79.843623087850872,-6.77942124243908,0.0],[-79.843895315251316,-6.779543504493346,0.0],[-79.844040410809015,-6.779767414322872,0.0],[-79.844113357245774,-6.780003631113066,0.0],[-79.844693186186589,-6.779845802736224,0.0],[-79.844239753609841,-6.776506509696426,0.0],[-79.843491394356903,-6.776377999542354,0.0],[-79.843333256159355,-6.776316569354963,0.0],[-79.843266582439071,-6.776290669284342,0.0],[-79.842835666490046,-6.776056219064185,0.0],[-79.841913384040893,-6.775708736497322,0.0],[-79.841281731555299,-6.775488672496677,0.0],[-79.840926905493319,-6.775357179956342,0.0],[-79.840198811109346,-6.775449488240123,0.0],[-79.837115370576925,-6.775843459423399,0.0],[-79.836726902093048,-6.77589334560529,0.0],[-79.836657343308815,-6.775818479990134,0.0],[-79.835619004172912,-6.775537340518948,0.0],[-79.835493719162088,-6.77654544703878,0.0]]]]}},
{"type":"Feature","properties":{"ID_UBI_GEO":"140101","COD_SECTOR":"13","ID_SECTOR":"14010113"},"geometry":{"type":"MultiPolygon","coordinates":[[[[-79.829775151327055,-6.767157294904892,0.0],[-79.829454215082251,-6.774166477564092,0.0],[-79.832352149307155,-6.774714783589761,0.0],[-79.835619004171761,-6.775537340518744,0.0],[-79.836152788656449,-6.773092684889039,0.0],[-79.836094453762144,-6.771536413908303,0.0],[-79.836017302050394,-6.769472514275968,0.0],[-79.835428132766395,-6.766962272819448,0.0],[-79.834680330828789,-6.763291751456252,0.0],[-79.834120017121322,-6.763405822345272,0.0],[-79.831151818657261,-6.763536936857232,0.0],[-79.830888120190991,-6.763543389253139,0.0],[-79.82975544357295,-6.763139776595048,0.0],[-79.829776449932979,-6.765845303230099,0.0],[-79.829775151327055,-6.767157294904892,0.0]]]]}},
{"type":"Feature","properties":{"ID_UBI_GEO":"140101","COD_SECTOR":"33","ID_SECTOR":"14010133"},"geometry":{"type":"MultiPolygon","coordinates":[[[[-79.829091262681899,-6.774203115104795,0.0],[-79.831290641862225,-6.782493134318755,0.0],[-79.831431211655357,-6.782854215518902,0.0],[-79.831692584520695,-6.78330571297229,0.0],[-79.831989405494824,-6.783610961679341,0.0],[-79.832289098697743,-6.783825882751926,0.0],[-79.832642546538352,-6.784047325682305,0.0],[-79.833500031207308,-6.784364018881923,0.0],[-79.834565900130571,-6.779620949450123,0.0],[-79.835493719162088,-6.77654544703878,0.0],[-79.83561900380171,-6.775537340425573,0.0],[-79.832352149307155,-6.774714783589761,0.0],[-79.829454215082251,-6.774166477564092,0.0],[-79.829091262681899,-6.774203115104795,0.0]]]]}},
{"type":"Feature","properties":{"ID_UBI_GEO":"140101","COD_SECTOR":"30","ID_SECTOR":"14010130"},"geometry":{"type":"MultiPolygon","coordinates":[[[[-79.845238400883645,-6.782318400317334,0.0],[-79.846968146942061,-6.789255997457302,0.0],[-79.851664538626181,-6.790913010468766,0.0],[-79.853042791777284,-6.786924745925736,0.0],[-79.85437066539896,-6.783185853207665,0.0],[-79.853470308765495,-6.782906777702556,0.0],[-79.851723138268994,-6.782744501702219,0.0],[-79.850593194457872,-6.782803618027508,0.0],[-79.849102310558663,-6.782929650835681,0.0],[-79.847833116765869,-6.782822957172705,0.0],[-79.847486067345628,-6.782858460752278,0.0],[-79.846207747960833,-6.783170965771547,0.0],[-79.845881712222905,-6.782592089151091,0.0],[-79.845551794136881,-6.782652775020686,0.0],[-79.845439103507204,-6.782289749273827,0.0],[-79.845238400883645,-6.782318400317334,0.0]]]]}},
{"type":"Feature","properties":{"ID_UBI_GEO":"140101","COD_SECTOR":"31","ID_SECTOR":"14010131"},"geometry":{"type":"MultiPolygon","coordinates":[[[[-79.839073054323904,-6.78303602003289,0.0],[-79.837165375758786,-6.783671068790482,0.0],[-79.837082858429895,-6.783710327250768,0.0],[-79.837008206931614,-6.783754543561622,0.0],[-79.836950830643829,-6.783790669159804,0.0],[-79.836882413515156,-6.783838290421034,0.0],[-79.836814469865615,-6.783898815248952,0.0],[-79.836737070164929,-6.783989851314056,0.0],[-79.836657592541869,-6.784105923352708,0.0],[-79.836604763296123,-6.78423747159582,0.0],[-79.836427189644283,-6.78475929065098,0.0],[-79.836246806606226,-6.785289440142033,0.0],[-79.846968146942061,-6.789255997457302,0.0],[-79.845238400883645,-6.782318400317334,0.0],[-79.844983876639205,-6.781164112007255,0.0],[-79.843813155181735,-6.781486348259374,0.0],[-79.842249488187974,-6.781975234890538,0.0],[-79.840836870726221,-6.782466728657271,0.0],[-79.840161081503396,-6.782688322278656,0.0],[-79.839073054323904,-6.78303602003289,0.0]]]]}},
{"type":"Feature","properties":{"ID_UBI_GEO":"140101","COD_SECTOR":"32","ID_SECTOR":"14010132"},"geometry":{"type":"MultiPolygon","coordinates":[[[[-79.834565900130571,-6.779620949450123,0.0],[-79.833500031207308,-6.784364018881923,0.0],[-79.836246806606226,-6.785289440142033,0.0],[-79.836427189644283,-6.78475929065098,0.0],[-79.836604763296123,-6.78423747159582,0.0],[-79.836657592541869,-6.784105923352708,0.0],[-79.836737070164929,-6.783989851314056,0.0],[-79.836814469865615,-6.783898815248952,0.0],[-79.836882413515156,-6.783838290421034,0.0],[-79.836950830643829,-6.783790669159804,0.0],[-79.837008206931614,-6.783754543561622,0.0],[-79.837082858429895,-6.783710327250768,0.0],[-79.837165375758786,-6.783671068790482,0.0],[-79.839073054323904,-6.78303602003289,0.0],[-79.840161081503396,-6.782688322278656,0.0],[-79.840836870726221,-6.782466728657271,0.0],[-79.842249488187974,-6.781975234890538,0.0],[-79.843813155181735,-6.781486348259374,0.0],[-79.844983876639205,-6.781164112007255,0.0],[-79.844693186186589,-6.779845802736224,0.0],[-79.844113357245774,-6.780003631113066,0.0],[-79.844040410809015,-6.779767414322872,0.0],[-79.843895315251316,-6.779543504493346,0.0],[-79.843623087850872,-6.77942124243908,0.0],[-79.843366724161413,-6.779437288624487,0.0],[-79.843166965588267,-6.779563715040226,0.0],[-79.843031250153814,-6.779766558540564,0.0],[-79.843004968728692,-6.780235157720082,0.0],[-79.842570248118278,-6.780209562158346,0.0],[-79.841367826819905,-6.780142745954024,0.0],[-79.840802239019027,-6.780085107301273,0.0],[-79.840291646100795,-6.779981739782142,0.0],[-79.839705465518094,-6.779797728738273,0.0],[-79.83930389832905,-6.779612392368335,0.0],[-79.83899059193007,-6.779432552338712,0.0],[-79.838588777856387,-6.779555840780675,0.0],[-79.83807316734935,-6.779869738842673,0.0],[-79.83740909186821,-6.780093733165369,0.0],[-79.836401688458892,-6.780031901359035,0.0],[-79.834565900130571,-6.779620949450123,0.0]]]]}},
{"type":"Feature","properties":{"ID_UBI_GEO":"140101","COD_SECTOR":"14","ID_SECTOR":"14010114"},"geometry":{"type":"MultiPolygon","coordinates":[[[[-79.825342929479731,-6.767908698880228,0.0],[-79.828241373694411,-6.770996929156488,0.0],[-79.829091262681899,-6.774203115104795,0.0],[-79.829454215082251,-6.774166477564092,0.0],[-79.829775151327055,-6.767157294904892,0.0],[-79.829776449932979,-6.765845303230099,0.0],[-79.82884421333172,-6.76585539536179,0.0],[-79.82883872106224,-6.766099174145646,0.0],[-79.826448333080094,-6.76604138213703,0.0],[-79.826449112127833,-6.766175480444821,0.0],[-79.82407343611078,-6.766124288783067,0.0],[-79.823680250519075,-6.766213412753487,0.0],[-79.825342929479731,-6.767908698880228,0.0]]]]}},
{"type":"Feature","properties":{"ID_UBI_GEO":"140101","COD_SECTOR":"16","ID_SECTOR":"14010116"},"geometry":{"type":"MultiPolygon","coordinates":[[[[-79.815671464759319,-6.758208907578223,0.0],[-79.814985614513489,-6.767191653371411,0.0],[-79.825342929479731,-6.767908698880228,0.0],[-79.823680250519075,-6.766213412753487,0.0],[-79.817960277731416,-6.760432657367915,0.0],[-79.817345376150342,-6.759639458531831,0.0],[-79.815671464759319,-6.758208907578223,0.0]]]]}},
{"type":"Feature","properties":{"ID_UBI_GEO":"140101","COD_SECTOR":"29","ID_SECTOR":"14010129"},"geometry":{"type":"MultiPolygon","coordinates":[[[[-79.855279640284508,-6.780643175032283,0.0],[-79.854371898172531,-6.783186235318184,0.0],[-79.853042791777284,-6.786924745925736,0.0],[-79.854649444415116,-6.78750397759469,0.0],[-79.854806989955932,-6.787065913059376,0.0],[-79.860481678712205,-6.786828361050513,0.0],[-79.862244661987845,-6.784003147158338,0.0],[-79.856828742077596,-6.781331277404186,0.0],[-79.855279640284508,-6.780643175032283,0.0]]]]}},
{"type":"Feature","properties":{"ID_UBI_GEO":"140101","COD_SECTOR":"34","ID_SECTOR":"14010134"},"geometry":{"type":"MultiPolygon","coordinates":[[[[-79.814625209324163,-6.773548964744688,0.0],[-79.814220044773805,-6.779041403166658,0.0],[-79.813759071587597,-6.786209589909681,0.0],[-79.816702060722648,-6.791425130171828,0.0],[-79.819229791500206,-6.793836849483936,0.0],[-79.819902078274708,-6.796730333002134,0.0],[-79.822271728252474,-6.801544917609123,0.0],[-79.823833800747948,-6.805481197531127,0.0],[-79.823273536078815,-6.805617302879109,0.0],[-79.823777876363266,-6.806439996073365,0.0],[-79.824072294362864,-6.808142869888994,0.0],[-79.824550763237852,-6.808057449495966,0.0],[-79.82566317622279,-6.811921675351484,0.0],[-79.829440597475028,-6.810928755646207,0.0],[-79.829463458378072,-6.803670046546605,0.0],[-79.833500031207308,-6.784364018881923,0.0],[-79.832642546538352,-6.784047325682305,0.0],[-79.832289098697743,-6.783825882751926,0.0],[-79.831989405494824,-6.783610961679341,0.0],[-79.831692584520695,-6.78330571297229,0.0],[-79.831431211655357,-6.782854215518902,0.0],[-79.831290641862225,-6.782493134318755,0.0],[-79.829091262681899,-6.774203115104795,0.0],[-79.828241373694411,-6.770996929156488,0.0],[-79.825342929479731,-6.767908698880228,0.0],[-79.814985614513489,-6.767191653371411,0.0],[-79.814897007290398,-6.76937236929328,0.0],[-79.814625209324163,-6.773548964744688,0.0]]]]}},
{"type":"Feature","properties":{"ID_UBI_GEO":"140101","COD_SECTOR":"35","ID_SECTOR":"14010135"},"geometry":{"type":"MultiPolygon","coordinates":[[[[-79.804775237644307,-6.768733661000272,0.0],[-79.807025955404313,-6.772522666559076,0.0],[-79.807148802588529,-6.772990648569525,0.0],[-79.814625209324163,-6.773548964744688,0.0],[-79.814897007290398,-6.76937236929328,0.0],[-79.804775237644307,-6.768733661000272,0.0]]]]}},
{"type":"Feature","properties":{"ID_UBI_GEO":"140101","COD_SECTOR":"28","ID_SECTOR":"14010128"},"geometry":{"type":"MultiPolygon","coordinates":[[[[-79.860809382894715,-6.787040582922917,0.0],[-79.861621550360752,-6.790626961522379,0.0],[-79.86174929371262,-6.792113348539551,0.0],[-79.862652627841058,-6.792058477125906,0.0],[-79.86301186091184,-6.792155284353004,0.0],[-79.863289929220301,-6.792167330078848,0.0],[-79.863560308066525,-6.794554786819892,0.0],[-79.868157780753776,-6.786912314373649,0.0],[-79.862244661987845,-6.784003147158338,0.0],[-79.860481678712205,-6.786828361050513,0.0],[-79.860809382894715,-6.787040582922917,0.0]]]]}},
{"type":"Feature","properties":{"ID_UBI_GEO":"140101","COD_SECTOR":"26","ID_SECTOR":"14010126"},"geometry":{"type":"MultiPolygon","coordinates":[[[[-79.844239753609841,-6.776506509696426,0.0],[-79.844693186186589,-6.779845802736224,0.0],[-79.844983876639205,-6.781164112007255,0.0],[-79.845238400883645,-6.782318400317334,0.0],[-79.845439103507204,-6.782289749273827,0.0],[-79.845551794136881,-6.782652775020686,0.0],[-79.845881712222905,-6.782592089151091,0.0],[-79.846207747960833,-6.783170965771547,0.0],[-79.847486067345628,-6.782858460752278,0.0],[-79.847833116765869,-6.782822957172705,0.0],[-79.849102310558663,-6.782929650835681,0.0],[-79.850593194457872,-6.782803618027508,0.0],[-79.851723138268994,-6.782744501702219,0.0],[-79.853470308765495,-6.782906777702556,0.0],[-79.854371898172531,-6.783186235318184,0.0],[-79.855279640284508,-6.780643175032283,0.0],[-79.852746150500565,-6.779307192711591,0.0],[-79.851959519851505,-6.778696124606149,0.0],[-79.850271451539328,-6.777838699092174,0.0],[-79.849436415852466,-6.777566304871274,0.0],[-79.845941410582981,-6.776870352818656,0.0],[-79.844239753609841,-6.776506509696426,0.0]]]]}},
{"type":"Feature","properties":{"ID_UBI_GEO":"140101","COD_SECTOR":"36","ID_SECTOR":"14010136"},"geometry":{"type":"MultiPolygon","coordinates":[[[[-79.795025916529141,-6.763068259985062,0.0],[-79.795851864635651,-6.765544531947224,0.0],[-79.796532998217657,-6.7654798408848,0.0],[-79.803416192848914,-6.766445272324959,0.0],[-79.801216751486706,-6.762783996190133,0.0],[-79.800848031069194,-6.762187863511665,0.0],[-79.795025916529141,-6.763068259985062,0.0]]]]}},
{"type":"Feature","properties":{"ID_UBI_GEO":"140101","COD_SECTOR":"37","ID_SECTOR":"14010137"},"geometry":{"type":"MultiPolygon","coordinates":[[[[-79.798707188524176,-6.76990509416846,0.0],[-79.799025159104701,-6.771210149081591,0.0],[-79.79930916596291,-6.772319114382458,0.0],[-79.807148802588529,-6.772990648569525,0.0],[-79.807025955404313,-6.772522666559076,0.0],[-79.804775237644307,-6.768733661000272,0.0],[-79.803416192848914,-6.766445272324959,0.0],[-79.796532998217657,-6.7654798408848,0.0],[-79.795851864635651,-6.765544531947224,0.0],[-79.79622733354833,-6.766587385879826,0.0],[-79.798707188524176,-6.76990509416846,0.0]]]]}},
{"type":"Feature","properties":{"ID_UBI_GEO":"140101","COD_SECTOR":"38","ID_SECTOR":"14010138"},"geometry":{"type":"MultiPolygon","coordinates":[[[[-79.807148802588529,-6.772990648569525,0.0],[-79.79930916596291,-6.772319114382458,0.0],[-79.799776951191532,-6.774183029498023,0.0],[-79.799625276458002,-6.777053085845661,0.0],[-79.803305635605227,-6.777056977205001,0.0],[-79.803177323664386,-6.775642949701776,0.0],[-79.803580937545163,-6.775140484385426,0.0],[-79.803630546115812,-6.774388951286637,0.0],[-79.805942364290047,-6.774533602788608,0.0],[-79.806001510935772,-6.775112928049097,0.0],[-79.806511232151877,-6.775154729096034,0.0],[-79.806798934221135,-6.777851171828114,0.0],[-79.807840324048101,-6.777652191105322,0.0],[-79.807659751014853,-6.776721130415872,0.0],[-79.807858278811423,-6.776222175177136,0.0],[-79.807889142259981,-6.77556884140034,0.0],[-79.808682667811553,-6.775307794219533,0.0],[-79.808550270577712,-6.774654242738141,0.0],[-79.809998620709706,-6.774813253220018,0.0],[-79.809957928863852,-6.776424214191319,0.0],[-79.811959111053881,-6.776700434091006,0.0],[-79.81179989828324,-6.778714138107907,0.0],[-79.814225210509576,-6.778971377819231,0.0],[-79.814625209324163,-6.773548964744688,0.0],[-79.807148802588529,-6.772990648569525,0.0]]]]}},
{"type":"Feature","properties":{"ID_UBI_GEO":"140101","COD_SECTOR":"43","ID_SECTOR":"14010143"},"geometry":{"type":"MultiPolygon","coordinates":[[[[-79.809914831887454,-6.752548476477102,0.0],[-79.815671464759319,-6.758208907578223,0.0],[-79.817345376150342,-6.759639458531831,0.0],[-79.817662009341461,-6.759627661319795,0.0],[-79.817659673043607,-6.759246331658139,0.0],[-79.820471055890792,-6.757369196084952,0.0],[-79.81838309623582,-6.756167993043662,0.0],[-79.810627903156004,-6.751847283260741,0.0],[-79.809914831887454,-6.752548476477102,0.0]]]]}},
{"type":"Feature","properties":{"ID_UBI_GEO":"140101","COD_SECTOR":"52","ID_SECTOR":"14010152"},"geometry":{"type":"MultiPolygon","coordinates":[[[[-79.798324197519605,-6.757879062645808,0.0],[-79.800848031069194,-6.762187863511665,0.0],[-79.801216751486706,-6.762783996190133,0.0],[-79.802389892868717,-6.757104474767266,0.0],[-79.798324197519605,-6.757879062645808,0.0]]]]}},
{"type":"Feature","properties":{"ID_UBI_GEO":"140101","COD_SECTOR":"51","ID_SECTOR":"14010151"},"geometry":{"type":"MultiPolygon","coordinates":[[[[-79.789304387591798,-6.757813784303495,0.0],[-79.790005051151226,-6.759576666511355,0.0],[-79.790209993370979,-6.760137190365867,0.0],[-79.792595715834921,-6.759652428986548,0.0],[-79.793610772265353,-6.759544910317228,0.0],[-79.797172216109459,-6.759059024151868,0.0],[-79.798844823281641,-6.758767904213689,0.0],[-79.798324197519605,-6.757879062645808,0.0],[-79.796853746040071,-6.758164879292451,0.0],[-79.796620198611279,-6.757653128762432,0.0],[-79.794978588204373,-6.7580853761359,0.0],[-79.792830959071694,-6.758374900806886,0.0],[-79.790024944232186,-6.757570638744768,0.0],[-79.789304387591798,-6.757813784303495,0.0]]]]}},
{"type":"Feature","properties":{"ID_UBI_GEO":"140101","COD_SECTOR":"50","ID_SECTOR":"14010150"},"geometry":{"type":"MultiPolygon","coordinates":[[[[-79.792595715834921,-6.759652428986548,0.0],[-79.790209993370979,-6.760137190365867,0.0],[-79.790678412946221,-6.761418329753522,0.0],[-79.791637276445272,-6.761277988728756,0.0],[-79.793143167811067,-6.760865829728857,0.0],[-79.793702506185298,-6.760778095843119,0.0],[-79.799548450523432,-6.759969171144881,0.0],[-79.798844823281641,-6.758767904213689,0.0],[-79.797172216109459,-6.759059024151868,0.0],[-79.793610772265353,-6.759544910317228,0.0],[-79.792595715834921,-6.759652428986548,0.0]]]]}},
{"type":"Feature","properties":{"ID_UBI_GEO":"140101","COD_SECTOR":"49","ID_SECTOR":"14010149"},"geometry":{"type":"MultiPolygon","coordinates":[[[[-79.790678412946221,-6.761418329753522,0.0],[-79.79099131658333,-6.762274126105326,0.0],[-79.7945386431267,-6.76187102938329,0.0],[-79.800200646406793,-6.761082626753117,0.0],[-79.799548450523432,-6.759969171144881,0.0],[-79.793702506185298,-6.760778095843119,0.0],[-79.793143167811067,-6.760865829728857,0.0],[-79.791637276445272,-6.761277988728756,0.0],[-79.790678412946221,-6.761418329753522,0.0]]]]}},
{"type":"Feature","properties":{"ID_UBI_GEO":"140101","COD_SECTOR":"48","ID_SECTOR":"14010148"},"geometry":{"type":"MultiPolygon","coordinates":[[[[-79.790991316583316,-6.762274126105326,0.0],[-79.791439043740269,-6.76349866270129,0.0],[-79.795025916529141,-6.763068259985062,0.0],[-79.800848031069194,-6.762187863511665,0.0],[-79.800200646406793,-6.761082626753117,0.0],[-79.7945386431267,-6.76187102938329,0.0],[-79.790991316583316,-6.762274126105326,0.0]]]]}},
{"type":"Feature","properties":{"ID_UBI_GEO":"140101","COD_SECTOR":"47","ID_SECTOR":"14010147"},"geometry":{"type":"MultiPolygon","coordinates":[[[[-79.791439043740269,-6.76349866270129,0.0],[-79.792246092807687,-6.7655326191053,0.0],[-79.792343141274927,-6.766327923385887,0.0],[-79.796526170809841,-6.766987192097043,0.0],[-79.79622733354833,-6.766587385879826,0.0],[-79.795851864635651,-6.765544531947224,0.0],[-79.795025916529141,-6.763068259985062,0.0],[-79.791439043740269,-6.76349866270129,0.0]]]]}},
{"type":"Feature","properties":{"ID_UBI_GEO":"140101","COD_SECTOR":"46","ID_SECTOR":"14010146"},"geometry":{"type":"MultiPolygon","coordinates":[[[[-79.792343141274927,-6.766327923385887,0.0],[-79.792839106910776,-6.770392310018202,0.0],[-79.792822883359875,-6.771502180510248,0.0],[-79.79930916596291,-6.772319114382458,0.0],[-79.799025159104701,-6.771210149081591,0.0],[-79.798707188524176,-6.76990509416846,0.0],[-79.796526170809841,-6.766987192097043,0.0],[-79.792343141274927,-6.766327923385887,0.0]]]]}},
{"type":"Feature","properties":{"ID_UBI_GEO":"140101","COD_SECTOR":"44","ID_SECTOR":"14010144"},"geometry":{"type":"MultiPolygon","coordinates":[[[[-79.857736614036298,-6.791227287668411,0.0],[-79.857331297656401,-6.792637024006878,0.0],[-79.856630580945378,-6.794040323548091,0.0],[-79.862241591668123,-6.79657785742609,0.0],[-79.863454693541811,-6.79472451091748,0.0],[-79.863560308066525,-6.794554786819892,0.0],[-79.863289929220301,-6.792167330078848,0.0],[-79.86301186091184,-6.792155284353004,0.0],[-79.862652627841058,-6.792058477125906,0.0],[-79.86174929371262,-6.792113348539551,0.0],[-79.861621550360752,-6.790626961522379,0.0],[-79.860809382894715,-6.787040582922917,0.0],[-79.860481678712205,-6.786828361050513,0.0],[-79.857736614036298,-6.791227287668411,0.0]]]]}},
{"type":"Feature","properties":{"ID_UBI_GEO":"140101","COD_SECTOR":"45","ID_SECTOR":"14010145"},"geometry":{"type":"MultiPolygon","coordinates":[[[[-79.851664538626181,-6.790913010468766,0.0],[-79.853533728149415,-6.791624883245471,0.0],[-79.853787744829404,-6.793166225247007,0.0],[-79.8545158577476,-6.793095200964705,0.0],[-79.85480211327868,-6.794508731499996,0.0],[-79.856630580945378,-6.794040323548091,0.0],[-79.857331297656401,-6.792637024006878,0.0],[-79.857736614036298,-6.791227287668411,0.0],[-79.860481678712205,-6.786828361050513,0.0],[-79.854806989955932,-6.787065913059376,0.0],[-79.854649444415116,-6.78750397759469,0.0],[-79.853042791777284,-6.786924745925736,0.0],[-79.851664538626181,-6.790913010468766,0.0]]]]}},
{"type":"Feature","properties":{"ID_UBI_GEO":"140101","COD_SECTOR":"55","ID_SECTOR":"14010155"},"geometry":{"type":"MultiPolygon","coordinates":[[[[-79.815117414310322,-6.738237701052221,0.0],[-79.815778113003603,-6.741816339676046,0.0],[-79.816025736858506,-6.742770773837119,0.0],[-79.819186811892294,-6.742109969623991,0.0],[-79.819265298065929,-6.741651475835909,0.0],[-79.819838815779406,-6.741088251770829,0.0],[-79.819667013841624,-6.740187557404031,0.0],[-79.820148713846351,-6.739639989436379,0.0],[-79.82003386603013,-6.738703460759814,0.0],[-79.820515533197295,-6.738629461713021,0.0],[-79.820462604928608,-6.737889623093607,0.0],[-79.821246769268271,-6.737758047657578,0.0],[-79.821936359396432,-6.737140160856502,0.0],[-79.822033766410271,-6.735739581869933,0.0],[-79.819925466730737,-6.736120859145944,0.0],[-79.818486220335316,-6.737240537245475,0.0],[-79.817093715473661,-6.737025178037101,0.0],[-79.817167565818806,-6.737812402058005,0.0],[-79.815117414310322,-6.738237701052221,0.0]]]]}},
{"type":"Feature","properties":{"ID_UBI_GEO":"140101","COD_SECTOR":"56","ID_SECTOR":"14010156"},"geometry":{"type":"MultiPolygon","coordinates":[[[[-79.811851551671296,-6.738447238741943,0.0],[-79.812588027337341,-6.743277366789457,0.0],[-79.815951255772887,-6.742786343393488,0.0],[-79.816025736858506,-6.742770773837119,0.0],[-79.815778113003603,-6.741816339676046,0.0],[-79.815117414310322,-6.738237701052221,0.0],[-79.813036301723784,-6.738629544241762,0.0],[-79.811851551671296,-6.738447238741943,0.0]]]]}},
{"type":"Feature","properties":{"ID_UBI_GEO":"140101","COD_SECTOR":"57","ID_SECTOR":"14010157"},"geometry":{"type":"MultiPolygon","coordinates":[[[[-79.809705920684195,-6.745153716050095,0.0],[-79.809006336482994,-6.745230397994227,0.0],[-79.808694654342858,-6.746501776826396,0.0],[-79.808723256967411,-6.747112440611484,0.0],[-79.80998769914666,-6.746604303938279,0.0],[-79.811196857993565,-6.746189412154246,0.0],[-79.812878744,-6.745967068999946,0.0],[-79.813556015756959,-6.745516206488534,0.0],[-79.816247163241599,-6.745264513796283,0.0],[-79.819397706949701,-6.744973574609516,0.0],[-79.819358277863685,-6.744568383512711,0.0],[-79.819143609,-6.74236234799997,0.0],[-79.819186811892294,-6.742109969623991,0.0],[-79.815951255772887,-6.742786343393488,0.0],[-79.812588027337341,-6.743277366789457,0.0],[-79.809560554880647,-6.743670447684084,0.0],[-79.809705920684195,-6.745153716050095,0.0]]]]}},
{"type":"Feature","properties":{"ID_UBI_GEO":"140101","COD_SECTOR":"58","ID_SECTOR":"14010158"},"geometry":{"type":"MultiPolygon","coordinates":[[[[-79.804636910213887,-6.744190882630311,0.0],[-79.801989260548908,-6.745930606776898,0.0],[-79.806902976481837,-6.749593148219859,0.0],[-79.807876633166543,-6.748692697157557,0.0],[-79.808266570959319,-6.747320891872153,0.0],[-79.808723256967411,-6.747112440611484,0.0],[-79.808694654342858,-6.746501776826396,0.0],[-79.809006336482994,-6.745230397994227,0.0],[-79.809705920684195,-6.745153716050095,0.0],[-79.809560554880647,-6.743670447684084,0.0],[-79.808798457605704,-6.743769393722159,0.0],[-79.807449217948559,-6.743940090036629,0.0],[-79.804762987389992,-6.743318970183361,0.0],[-79.804636910213887,-6.744190882630311,0.0]]]]}},
{"type":"Feature","properties":{"ID_UBI_GEO":"140101","COD_SECTOR":"59","ID_SECTOR":"14010159"},"geometry":{"type":"MultiPolygon","coordinates":[[[[-79.794135147705106,-6.73979600528594,0.0],[-79.790022408331467,-6.741882187762174,0.0],[-79.793269671490975,-6.743848253401865,0.0],[-79.796805538201085,-6.74441830889213,0.0],[-79.797170871059123,-6.742182243921932,0.0],[-79.797728047500257,-6.742620209837296,0.0],[-79.797895848220492,-6.742551847224722,0.0],[-79.797995922764343,-6.742511076459222,0.0],[-79.798031401112695,-6.742496791026756,0.0],[-79.79810131998893,-6.74246863637648,0.0],[-79.79822330920662,-6.742419511478847,0.0],[-79.79828485562831,-6.742394726596023,0.0],[-79.798404529140839,-6.742346533378738,0.0],[-79.798524202634113,-6.7422983401278,0.0],[-79.798585748994554,-6.742273555014236,0.0],[-79.798705422458582,-6.742225361712365,0.0],[-79.798825095903325,-6.742177168376861,0.0],[-79.798886642238799,-6.742152383219805,0.0],[-79.799006315654324,-6.742104189833372,0.0],[-79.79912598905058,-6.742055996413321,0.0],[-79.799187535361114,-6.742031211212762,0.0],[-79.799727774979132,-6.741813651848401,0.0],[-79.799789321239757,-6.741788866560886,0.0],[-79.799908994509707,-6.741740672920801,0.0],[-79.800028667760429,-6.741692479247071,0.0],[-79.800090213996086,-6.741667693916058,0.0],[-79.800209887217548,-6.741619500191426,0.0],[-79.800329560419712,-6.74157130643315,0.0],[-79.800391106630443,-6.741546521058672,0.0],[-79.800510779803389,-6.741498327249479,0.0],[-79.800630452957023,-6.741450133406661,0.0],[-79.800692064073218,-6.7414253218404,0.0],[-79.800816907780202,-6.74137504568614,0.0],[-79.800803586470394,-6.74130557075771,0.0],[-79.800791664982384,-6.74124339383845,0.0],[-79.800779743496051,-6.74118121691928,0.0],[-79.800767822011451,-6.741119040000204,0.0],[-79.800755807212937,-6.741056881150729,0.0],[-79.80074379016456,-6.740994722737344,0.0],[-79.800731773288504,-6.740932564291001,0.0],[-79.80071975624351,-6.740870405877802,0.0],[-79.800707739370907,-6.740808247431656,0.0],[-79.800702404666978,-6.740780651772204,0.0],[-79.80069572232938,-6.740746089018622,0.0],[-79.800683705622163,-6.740683930541287,0.0],[-79.800671688916665,-6.740621772064046,0.0],[-79.800663800239363,-6.740580966518378,0.0],[-79.800659863786834,-6.740559576490704,0.0],[-79.800648404757112,-6.740497310026521,0.0],[-79.800636945516928,-6.740435043603505,0.0],[-79.800625487105137,-6.740372777020469,0.0],[-79.80061402766114,-6.740310510637713,0.0],[-79.800602568380754,-6.740248244223659,0.0],[-79.800591109811549,-6.740185977672295,0.0],[-79.800579650371347,-6.740123711290003,0.0],[-79.800568191439467,-6.740061444809659,0.0],[-79.800556732509122,-6.739999178329407,0.0],[-79.800545958203543,-6.739940632011911,0.0],[-79.800532380788908,-6.739874923021563,0.0],[-79.800519568837132,-6.7398129185406,0.0],[-79.800506756887273,-6.739750914059707,0.0],[-79.800493944939305,-6.739688909578934,0.0],[-79.800481132993312,-6.739626905098214,0.0],[-79.800468321049209,-6.739564900617594,0.0],[-79.80045550910701,-6.739502896137066,0.0],[-79.800442697166744,-6.739440891656622,0.0],[-79.800435009594977,-6.739403686991241,0.0],[-79.800430585654922,-6.7393787515461,0.0],[-79.800419524924095,-6.739316407963376,0.0],[-79.800408464743768,-6.739254064274451,0.0],[-79.800397403533637,-6.739191720785288,0.0],[-79.80038405989383,-6.739116505744698,0.0],[-79.800344937344178,-6.73905934091639,0.0],[-79.800316474729343,-6.739045071566286,0.0],[-79.800261230092602,-6.739032455558015,0.0],[-79.800229146562458,-6.739034850125317,0.0],[-79.800163491315686,-6.739040121707522,0.0],[-79.800038063841669,-6.739058613953487,0.0],[-79.799912636432097,-6.739077106518285,0.0],[-79.799848131008432,-6.739086617497223,0.0],[-79.799812000296512,-6.739091944822493,0.0],[-79.799723847143838,-6.739111011977223,0.0],[-79.799600025875861,-6.739137793964201,0.0],[-79.799536346352212,-6.739151567486753,0.0],[-79.799412525131189,-6.739178349729817,0.0],[-79.799288703901894,-6.739205131939021,0.0],[-79.799225185086769,-6.739219734908262,0.0],[-79.799102573126817,-6.739252758319513,0.0],[-79.798979961325415,-6.739285782574845,0.0],[-79.798893758243707,-6.739309000145493,0.0],[-79.798793069593245,-6.739329481634501,0.0],[-79.798668950981337,-6.739354729075477,0.0],[-79.798604606595475,-6.739365071188884,0.0],[-79.798530092967994,-6.739375843029237,0.0],[-79.79847130247532,-6.739370362022889,0.0],[-79.798367968345119,-6.73934152868309,0.0],[-79.798337671218732,-6.739319061756176,0.0],[-79.798257644044511,-6.739248462327934,0.0],[-79.798236438946034,-6.739227159800146,0.0],[-79.798168731830444,-6.739205558244241,0.0],[-79.798119191079735,-6.739199727394157,0.0],[-79.798076119316377,-6.739194657739519,0.0],[-79.797992745542885,-6.739212964819063,0.0],[-79.797915633346207,-6.73922989564091,0.0],[-79.797805028245406,-6.739252402546036,0.0],[-79.797680911424337,-6.739277658902159,0.0],[-79.797617079913465,-6.739290647872128,0.0],[-79.797492963081055,-6.739315904176995,0.0],[-79.797439622829287,-6.739326758275371,0.0],[-79.797369637730355,-6.73934524549821,0.0],[-79.797306520031739,-6.73936191862235,0.0],[-79.797183791164798,-6.739394338560362,0.0],[-79.797061062286645,-6.73942675846458,0.0],[-79.796997944573533,-6.739443431545008,0.0],[-79.796851107489772,-6.739482219771229,0.0],[-79.796751384818322,-6.739502583752628,0.0],[-79.796687561836706,-6.739515616786624,0.0],[-79.796563438535856,-6.739540839788643,0.0],[-79.796439361465559,-6.739566301403835,0.0],[-79.796375538361161,-6.739579333810506,0.0],[-79.79625143818069,-6.739604676155327,0.0],[-79.796127337992672,-6.739630018466299,0.0],[-79.796063515035954,-6.739643051641578,0.0],[-79.795939414836582,-6.739668393901268,0.0],[-79.795893654004018,-6.73967773862269,0.0],[-79.795815290185232,-6.739693609961851,0.0],[-79.795751447303971,-6.739706540306739,0.0],[-79.79562730836254,-6.73973168261842,0.0],[-79.795503169413692,-6.739756824896232,0.0],[-79.795209558590741,-6.739816290740541,0.0],[-79.795032533879009,-6.739852143949754,0.0],[-79.794552694066269,-6.739955779666338,0.0],[-79.794384594498212,-6.739992085059073,0.0],[-79.794135147705106,-6.73979600528594,0.0]]]]}},
{"type":"Feature","properties":{"ID_UBI_GEO":"140101","COD_SECTOR":"04","ID_SECTOR":"14010104"},"geometry":{"type":"MultiPolygon","coordinates":[[[[-79.855689737563495,-6.759493952761631,0.0],[-79.850957309695005,-6.76430470252645,0.0],[-79.852665914168028,-6.76523388159475,0.0],[-79.857431276618215,-6.764783838354607,0.0],[-79.858741957041559,-6.765477434160378,0.0],[-79.860075248219573,-6.763032716416773,0.0],[-79.860852646228508,-6.761722261410867,0.0],[-79.86156046185863,-6.760317800157123,0.0],[-79.862854895069233,-6.758145210707823,0.0],[-79.862512680882304,-6.757962286452089,0.0],[-79.855909472048239,-6.759137416287409,0.0],[-79.855689737563495,-6.759493952761631,0.0]]]]}},
{"type":"Feature","properties":{"ID_UBI_GEO":"140101","COD_SECTOR":"11","ID_SECTOR":"14010111"},"geometry":{"type":"MultiPolygon","coordinates":[[[[-79.849198156499099,-6.765966740816722,0.0],[-79.845606406815492,-6.769556882602722,0.0],[-79.845325021902127,-6.770068155002993,0.0],[-79.845173111503783,-6.770579734735152,0.0],[-79.845100079318826,-6.771209273087938,0.0],[-79.853215236688328,-6.770413119560651,0.0],[-79.854495495564862,-6.770098766987844,0.0],[-79.85583651556388,-6.769539158964763,0.0],[-79.857333206676103,-6.768077189375509,0.0],[-79.858741957041559,-6.765477434160378,0.0],[-79.857431276618215,-6.764783838354607,0.0],[-79.852665914168028,-6.76523388159475,0.0],[-79.850957309695005,-6.76430470252645,0.0],[-79.849198156499099,-6.765966740816722,0.0]]]]}},
{"type":"Feature","properties":{"ID_UBI_GEO":"140101","COD_SECTOR":"03","ID_SECTOR":"14010103"},"geometry":{"type":"MultiPolygon","coordinates":[[[[-79.862854895069233,-6.758145210707823,0.0],[-79.86156046185863,-6.760317800157123,0.0],[-79.860852646228508,-6.761722261410867,0.0],[-79.868561203889925,-6.765918321784194,0.0],[-79.868322821117403,-6.763710274376201,0.0],[-79.867631721928063,-6.757250495644807,0.0],[-79.864328847194585,-6.757744636064166,0.0],[-79.864119258174455,-6.758082654914589,0.0],[-79.863873762224259,-6.758243139070298,0.0],[-79.863091823653278,-6.758265804974468,0.0],[-79.862854895069233,-6.758145210707823,0.0]]]]}},
{"type":"Feature","properties":{"ID_UBI_GEO":"140101","COD_SECTOR":"08","ID_SECTOR":"14010108"},"geometry":{"type":"MultiPolygon","coordinates":[[[[-79.871548364159239,-6.763397148728705,0.0],[-79.871692891325793,-6.764636066248857,0.0],[-79.871922531090718,-6.764804793137015,0.0],[-79.872279336527356,-6.764929128572485,0.0],[-79.87254173748839,-6.764727085055746,0.0],[-79.872813763923787,-6.764605913535739,0.0],[-79.873286676023568,-6.764618762671414,0.0],[-79.873754962729535,-6.764727552010471,0.0],[-79.874037164740358,-6.764888531392033,0.0],[-79.874704491079626,-6.765625963052161,0.0],[-79.875130183330853,-6.766428297717886,0.0],[-79.875292027029701,-6.767769473098853,0.0],[-79.875234244458468,-6.769058609556695,0.0],[-79.875061767205437,-6.769508027568838,0.0],[-79.876723520338942,-6.770425650979711,0.0],[-79.876418867440975,-6.768607503037376,0.0],[-79.876372746865812,-6.767603404652664,0.0],[-79.876681588873254,-6.767242811719393,0.0],[-79.876560783021759,-6.764881023822858,0.0],[-79.876869570024539,-6.764976420708039,0.0],[-79.87658098244097,-6.763585981606005,0.0],[-79.876505539986667,-6.762959587165845,0.0],[-79.871548364159239,-6.763397148728705,0.0]]]]}},
{"type":"Feature","properties":{"ID_UBI_GEO":"140101","COD_SECTOR":"39","ID_SECTOR":"14010139"},"geometry":{"type":"MultiPolygon","coordinates":[[[[-79.877573630654027,-6.758309530472769,0.0],[-79.878556627425738,-6.759698494331706,0.0],[-79.878955685092137,-6.761432204208417,0.0],[-79.879027528196744,-6.762895217735714,0.0],[-79.87979714692581,-6.762927025005264,0.0],[-79.881099814246781,-6.762679842874705,0.0],[-79.88087635218038,-6.761193330742167,0.0],[-79.881821689748989,-6.761146761700118,0.0],[-79.881988838578906,-6.761857437721807,0.0],[-79.8824703405908,-6.76172236604629,0.0],[-79.882494849353961,-6.761320790060839,0.0],[-79.882485300790805,-6.761227416560853,0.0],[-79.883673204197791,-6.760972778273262,0.0],[-79.883693861612073,-6.761057228784839,0.0],[-79.884214083251081,-6.761170944172642,0.0],[-79.885672513097248,-6.762291567157447,0.0],[-79.886954316720335,-6.762831208888464,0.0],[-79.887610701148859,-6.763405207963004,0.0],[-79.887822970488202,-6.763500328842404,0.0],[-79.887849990349565,-6.763012102492254,0.0],[-79.887668094232978,-6.762571393584586,0.0],[-79.8880346559081,-6.760710278115329,0.0],[-79.887110125184321,-6.760519077885298,0.0],[-79.88533795589322,-6.759573049766935,0.0],[-79.884319161466081,-6.759092295407964,0.0],[-79.882344653606083,-6.759168360345345,0.0],[-79.882333496297932,-6.758841999702072,0.0],[-79.881899268295129,-6.758751371050305,0.0],[-79.881838311595843,-6.758419363020789,0.0],[-79.881843834986469,-6.758062166893714,0.0],[-79.879998368678926,-6.757682221082243,0.0],[-79.878475746508258,-6.757658598069728,0.0],[-79.877618162317745,-6.757712454112017,0.0],[-79.877573630654027,-6.758309530472769,0.0]]]]}},
{"type":"Feature","properties":{"ID_UBI_GEO":"140101","COD_SECTOR":"09","ID_SECTOR":"14010109"},"geometry":{"type":"MultiPolygon","coordinates":[[[[-79.868561203889925,-6.765918321784194,0.0],[-79.875061767205437,-6.769508027568838,0.0],[-79.875234244458468,-6.769058609556695,0.0],[-79.875292027029701,-6.767769473098853,0.0],[-79.875130183330853,-6.766428297717886,0.0],[-79.874704491079626,-6.765625963052161,0.0],[-79.874037164740358,-6.764888531392033,0.0],[-79.873754962729535,-6.764727552010471,0.0],[-79.873286676023568,-6.764618762671414,0.0],[-79.872813763923787,-6.764605913535739,0.0],[-79.87254173748839,-6.764727085055746,0.0],[-79.872279336527356,-6.764929128572485,0.0],[-79.871922531090718,-6.764804793137015,0.0],[-79.871692891325793,-6.764636066248857,0.0],[-79.871548364159239,-6.763397148728705,0.0],[-79.868322821117403,-6.763710274376201,0.0],[-79.868561203889925,-6.765918321784194,0.0]]]]}},
{"type":"Feature","properties":{"ID_UBI_GEO":"140101","COD_SECTOR":"10","ID_SECTOR":"14010110"},"geometry":{"type":"MultiPolygon","coordinates":[[[[-79.858741957041559,-6.765477434160378,0.0],[-79.85827763084086,-6.766346858834798,0.0],[-79.857808041644461,-6.767213454517009,0.0],[-79.857333206676103,-6.768077189375509,0.0],[-79.85583651556388,-6.769539158964763,0.0],[-79.854495495564862,-6.770098766987844,0.0],[-79.853215236688328,-6.770413119560651,0.0],[-79.858528326603448,-6.769869032675379,0.0],[-79.859145847921894,-6.769678748094375,0.0],[-79.868804223756044,-6.768750806486818,0.0],[-79.868561203889925,-6.765918321784194,0.0],[-79.860852646228508,-6.761722261410867,0.0],[-79.860075248219573,-6.763032716416773,0.0],[-79.858741957041559,-6.765477434160378,0.0]]]]}},
{"type":"Feature","properties":{"ID_UBI_GEO":"140101","COD_SECTOR":"17","ID_SECTOR":"14010117"},"geometry":{"type":"MultiPolygon","coordinates":[[[[-79.868561203889925,-6.765918321784194,0.0],[-79.868804223756044,-6.768750806486818,0.0],[-79.869270847913754,-6.772789851138338,0.0],[-79.876119055919148,-6.771990586445926,0.0],[-79.877786496122596,-6.771982027834226,0.0],[-79.878229407236404,-6.771257197394756,0.0],[-79.876723520338942,-6.770425650979711,0.0],[-79.875061767205437,-6.769508027568838,0.0],[-79.868561203889925,-6.765918321784194,0.0]]]]}},
{"type":"Feature","properties":{"ID_UBI_GEO":"140101","COD_SECTOR":"18","ID_SECTOR":"14010118"},"geometry":{"type":"MultiPolygon","coordinates":[[[[-79.869270847913754,-6.772789851138338,0.0],[-79.867983327306902,-6.774873208255888,0.0],[-79.871170986250789,-6.776710224203588,0.0],[-79.873882455407909,-6.778370917512095,0.0],[-79.877786496122596,-6.771982027834226,0.0],[-79.876119055919148,-6.771990586445926,0.0],[-79.869270847913754,-6.772789851138338,0.0]]]]}},
{"type":"Feature","properties":{"ID_UBI_GEO":"140101","COD_SECTOR":"19","ID_SECTOR":"14010119"},"geometry":{"type":"MultiPolygon","coordinates":[[[[-79.859145847921894,-6.769678748094375,0.0],[-79.858528326603448,-6.769869032675379,0.0],[-79.860235648070926,-6.770191565342335,0.0],[-79.861040650816818,-6.770550316616638,0.0],[-79.864502457246019,-6.772716357087882,0.0],[-79.866458465086566,-6.773939406622891,0.0],[-79.867983327306902,-6.774873208255888,0.0],[-79.869270847913754,-6.772789851138338,0.0],[-79.868804223756044,-6.768750806486818,0.0],[-79.859145847921894,-6.769678748094375,0.0]]]]}},
{"type":"Feature","properties":{"ID_UBI_GEO":"140101","COD_SECTOR":"20","ID_SECTOR":"14010120"},"geometry":{"type":"MultiPolygon","coordinates":[[[[-79.845100079318826,-6.771209273087938,0.0],[-79.845602207877121,-6.774610166388051,0.0],[-79.857013050342474,-6.773487029021361,0.0],[-79.864502457246004,-6.772716357087882,0.0],[-79.861040650816818,-6.770550316616638,0.0],[-79.860235648070926,-6.770191565342335,0.0],[-79.858528326603448,-6.769869032675379,0.0],[-79.853215236688328,-6.770413119560651,0.0],[-79.845100079318826,-6.771209273087938,0.0]]]]}},
{"type":"Feature","properties":{"ID_UBI_GEO":"140101","COD_SECTOR":"22","ID_SECTOR":"14010122"},"geometry":{"type":"MultiPolygon","coordinates":[[[[-79.865095791110164,-6.779410300004514,0.0],[-79.862244661987845,-6.784003147158338,0.0],[-79.868157780753776,-6.786912314373649,0.0],[-79.873882455407909,-6.778370917512095,0.0],[-79.871170986250789,-6.776710224203588,0.0],[-79.867983327306902,-6.77487320825587,0.0],[-79.866458465086566,-6.773939406622891,0.0],[-79.866784593388886,-6.776689773227234,0.0],[-79.865095791110164,-6.779410300004514,0.0]]]]}},
{"type":"Feature","properties":{"ID_UBI_GEO":"140101","COD_SECTOR":"25","ID_SECTOR":"14010125"},"geometry":{"type":"MultiPolygon","coordinates":[[[[-79.845602207877121,-6.774610166388051,0.0],[-79.845941410582981,-6.776870352818656,0.0],[-79.849436415852466,-6.777566304871274,0.0],[-79.850271451539328,-6.777838699092174,0.0],[-79.851959519851505,-6.778696124606149,0.0],[-79.852746150500565,-6.779307192711591,0.0],[-79.855279640284508,-6.780643175032283,0.0],[-79.856828742077596,-6.781331277404186,0.0],[-79.857547507513118,-6.779691045600355,0.0],[-79.857527652345468,-6.778529261352998,0.0],[-79.858021081081233,-6.778528160355216,0.0],[-79.85859966276665,-6.778456210796044,0.0],[-79.858484943011987,-6.777681471211801,0.0],[-79.858510258367502,-6.777573748882532,0.0],[-79.858504162950453,-6.777199686762607,0.0],[-79.858136907752026,-6.773371389947673,0.0],[-79.857013050342474,-6.773487029021361,0.0],[-79.845602207877121,-6.774610166388051,0.0]]]]}},
{"type":"Feature","properties":{"ID_UBI_GEO":"140101","COD_SECTOR":"61","ID_SECTOR":"14010161"},"geometry":{"type":"MultiPolygon","coordinates":[[[[-79.87964792651367,-6.769989106513231,0.0],[-79.881236891285496,-6.769876627315622,0.0],[-79.8811384344922,-6.768614327785984,0.0],[-79.880658079851216,-6.766887185860145,0.0],[-79.878229407236404,-6.771257197394756,0.0],[-79.877786496122596,-6.771982027834226,0.0],[-79.873882455407909,-6.778370917512095,0.0],[-79.875760606301014,-6.779671883380014,0.0],[-79.877513222718136,-6.781927758518648,0.0],[-79.878589838008153,-6.783655964525493,0.0],[-79.878830149157196,-6.784113793546473,0.0],[-79.879034579572604,-6.78631870406754,0.0],[-79.880716668280428,-6.786197712240762,0.0],[-79.880522478453415,-6.783661575531694,0.0],[-79.880260962287551,-6.779520361461903,0.0],[-79.879546574095031,-6.778521328713728,0.0],[-79.877732777742068,-6.776472328366414,0.0],[-79.878224181557854,-6.77497224251825,0.0],[-79.878296458935708,-6.774622333049632,0.0],[-79.87964792651367,-6.769989106513231,0.0]]]]}},
{"type":"Feature","properties":{"ID_UBI_GEO":"140101","COD_SECTOR":"64","ID_SECTOR":"14010164"},"geometry":{"type":"MultiPolygon","coordinates":[[[[-79.868157780753776,-6.786912314373649,0.0],[-79.863560308066525,-6.794554786819892,0.0],[-79.863454693541811,-6.79472451091748,0.0],[-79.862241591668123,-6.79657785742609,0.0],[-79.860564686394852,-6.799125625485096,0.0],[-79.862137858126019,-6.799497863899537,0.0],[-79.861215564506338,-6.80205258976693,0.0],[-79.861815543166614,-6.802469886782704,0.0],[-79.862332031690258,-6.802709925156767,0.0],[-79.86298774880612,-6.802676870748424,0.0],[-79.863246284977819,-6.802501440443599,0.0],[-79.862794945838658,-6.802142637347167,0.0],[-79.862769156108243,-6.801808649616105,0.0],[-79.86358324209057,-6.797298864359516,0.0],[-79.864023816855166,-6.79665902406668,0.0],[-79.864706246133437,-6.796587287981865,0.0],[-79.864656502474446,-6.796320163703237,0.0],[-79.864932750241806,-6.796209366085805,0.0],[-79.864676742715247,-6.795178668250698,0.0],[-79.864235394835646,-6.795107207307924,0.0],[-79.864073885228578,-6.794933710275348,0.0],[-79.86393266620847,-6.794692432033963,0.0],[-79.863637471364299,-6.794621145184582,0.0],[-79.863862104641456,-6.794275790140462,0.0],[-79.864461908292867,-6.79450600825651,0.0],[-79.866835712244679,-6.794419014335448,0.0],[-79.86801038742928,-6.795068877254455,0.0],[-79.868555808712614,-6.794799754974475,0.0],[-79.868896970377676,-6.794453964336773,0.0],[-79.869338516775372,-6.793491265797956,0.0],[-79.869280181005593,-6.793072607062357,0.0],[-79.868966568525423,-6.792543601431865,0.0],[-79.869153627524994,-6.792247072865022,0.0],[-79.86899964319646,-6.791378125960835,0.0],[-79.869358599696312,-6.791372444214857,0.0],[-79.870194441068577,-6.791165776385722,0.0],[-79.873080481938629,-6.790546643588792,0.0],[-79.874608159416368,-6.790315498257056,0.0],[-79.875014090024237,-6.790066362142289,0.0],[-79.871544271213807,-6.78845263301367,0.0],[-79.869813426723397,-6.787539881629345,0.0],[-79.868157780753776,-6.786912314373649,0.0]]]]}},
{"type":"Feature","properties":{"ID_UBI_GEO":"140101","COD_SECTOR":"62","ID_SECTOR":"14010162"},"geometry":{"type":"MultiPolygon","coordinates":[[[[-79.873882455407909,-6.778370917512095,0.0],[-79.868157780753776,-6.786912314373649,0.0],[-79.869813426723397,-6.787539881629345,0.0],[-79.871544271213807,-6.78845263301367,0.0],[-79.871948141490861,-6.787545217575169,0.0],[-79.873034238318908,-6.785032133467291,0.0],[-79.872821402347626,-6.783832352513145,0.0],[-79.873955936293569,-6.783724069987136,0.0],[-79.87397264558011,-6.783616803469877,0.0],[-79.874173729223727,-6.783612870779015,0.0],[-79.874686933291258,-6.783813242083383,0.0],[-79.875033564886564,-6.783979966285783,0.0],[-79.878589838008153,-6.783655964525493,0.0],[-79.877513222718136,-6.781927758518648,0.0],[-79.875760606301014,-6.779671883380014,0.0],[-79.873882455407909,-6.778370917512095,0.0]]]]}},
{"type":"Feature","properties":{"ID_UBI_GEO":"140101","COD_SECTOR":"23","ID_SECTOR":"14010123"},"geometry":{"type":"MultiPolygon","coordinates":[[[[-79.858136907752026,-6.773371389947673,0.0],[-79.858504162950453,-6.777199686762607,0.0],[-79.858510258367502,-6.777573748882532,0.0],[-79.85910109149755,-6.777568266703341,0.0],[-79.859718652820717,-6.777615840915527,0.0],[-79.861806874749519,-6.777404423529411,0.0],[-79.865095791110164,-6.779410300004514,0.0],[-79.866784593388886,-6.776689773227234,0.0],[-79.866458465086566,-6.773939406622891,0.0],[-79.864502457246019,-6.772716357087882,0.0],[-79.858136907752026,-6.773371389947673,0.0]]]]}},
{"type":"Feature","properties":{"ID_UBI_GEO":"140101","COD_SECTOR":"24","ID_SECTOR":"14010124"},"geometry":{"type":"MultiPolygon","coordinates":[[[[-79.857527652345468,-6.778529261352998,0.0],[-79.857547507513118,-6.779691045600355,0.0],[-79.856828925444987,-6.78133085895939,0.0],[-79.862244661987845,-6.784003147158338,0.0],[-79.865095791110164,-6.779410300004514,0.0],[-79.861806874749519,-6.777404423529411,0.0],[-79.859718652820717,-6.777615840915527,0.0],[-79.85910109149755,-6.777568266703341,0.0],[-79.858510258367502,-6.777573748882532,0.0],[-79.858484943011987,-6.777681471211801,0.0],[-79.85859966276665,-6.778456210796044,0.0],[-79.858021081081233,-6.778528160355216,0.0],[-79.857527652345468,-6.778529261352998,0.0]]]]}},
{"type":"Feature","properties":{"ID_UBI_GEO":"140101","COD_SECTOR":"02","ID_SECTOR":"14010102"},"geometry":{"type":"MultiPolygon","coordinates":[[[[-79.867728523132342,-6.758155309304425,0.0],[-79.868322821117403,-6.763710274376201,0.0],[-79.871548364159239,-6.763397148728705,0.0],[-79.876505539986667,-6.762959587165845,0.0],[-79.876785536638124,-6.762934870779953,0.0],[-79.876560206026639,-6.762358050611912,0.0],[-79.872844122579522,-6.757645209809921,0.0],[-79.872531949324639,-6.757750470544282,0.0],[-79.871926175552403,-6.757991025379902,0.0],[-79.869260525051857,-6.758104217880367,0.0],[-79.867728523132342,-6.758155309304425,0.0]]]]}},
{"type":"Feature","properties":{"ID_UBI_GEO":"140101","COD_SECTOR":"41","ID_SECTOR":"14010141"},"geometry":{"type":"MultiPolygon","coordinates":[[[[-79.864748843813203,-6.754939192695629,0.0],[-79.862854895069233,-6.758145210707823,0.0],[-79.863091823653278,-6.758265804974468,0.0],[-79.863873762224259,-6.758243139070298,0.0],[-79.864119258174455,-6.758082654914589,0.0],[-79.864328847194585,-6.757744636064166,0.0],[-79.867631721928063,-6.757250495644807,0.0],[-79.867728523132342,-6.758155309304425,0.0],[-79.869260525051857,-6.758104217880367,0.0],[-79.871926175552403,-6.757991025379902,0.0],[-79.872531949324639,-6.757750470544282,0.0],[-79.872844122579522,-6.757645209809921,0.0],[-79.872974764491332,-6.757601158990961,0.0],[-79.873936690963959,-6.757217811431619,0.0],[-79.873990520532416,-6.756318340190791,0.0],[-79.873970799108761,-6.755358551982187,0.0],[-79.873481579352514,-6.755035640171518,0.0],[-79.873465687182147,-6.753763626683611,0.0],[-79.873055540170469,-6.754078656177967,0.0],[-79.872678154232261,-6.752362833227765,0.0],[-79.872474807666862,-6.750793696582385,0.0],[-79.872704387628701,-6.750223088431685,0.0],[-79.872480430580453,-6.749771115594431,0.0],[-79.872500424924141,-6.749447230314395,0.0],[-79.873037591331041,-6.749589389358549,0.0],[-79.873972383205384,-6.749225011054935,0.0],[-79.87430422960766,-6.748266524906265,0.0],[-79.872126320725116,-6.746958351649226,0.0],[-79.864748843813203,-6.754939192695629,0.0]]]]}},
{"type":"Feature","properties":{"ID_UBI_GEO":"140101","COD_SECTOR":"07","ID_SECTOR":"14010107"},"geometry":{"type":"MultiPolygon","coordinates":[[[[-79.876560783021759,-6.764881023822858,0.0],[-79.876681588873254,-6.767242811719393,0.0],[-79.876372746865812,-6.767603404652664,0.0],[-79.876418867440975,-6.768607503037376,0.0],[-79.876723520338942,-6.770425650979711,0.0],[-79.878229407236404,-6.771257197394756,0.0],[-79.880658079851216,-6.766887185860145,0.0],[-79.87995950220234,-6.766903113181064,0.0],[-79.879753217629201,-6.763790586246114,0.0],[-79.879964658121935,-6.763768483853984,0.0],[-79.87979714692581,-6.762927025005264,0.0],[-79.879027528196744,-6.762895217735714,0.0],[-79.877698401338876,-6.762809835838484,0.0],[-79.876785536638124,-6.762934870779953,0.0],[-79.876505539986667,-6.762959587165845,0.0],[-79.87658098244097,-6.763585981606005,0.0],[-79.876869570024539,-6.764976420708039,0.0],[-79.876560783021759,-6.764881023822858,0.0]]]]}},
{"type":"Feature","properties":{"ID_UBI_GEO":"140101","COD_SECTOR":"63","ID_SECTOR":"14010163"},"geometry":{"type":"MultiPolygon","coordinates":[[[[-79.871948141490861,-6.787545217575169,0.0],[-79.871544271213807,-6.78845263301367,0.0],[-79.875014090024237,-6.790066362142289,0.0],[-79.875385119507072,-6.789249757702274,0.0],[-79.87519472554348,-6.788964217344793,0.0],[-79.87770708998714,-6.78875254271234,0.0],[-79.87761503026563,-6.787748254589006,0.0],[-79.879183574212178,-6.787561193376648,0.0],[-79.879034579572604,-6.78631870406754,0.0],[-79.878830149157196,-6.784113793546473,0.0],[-79.878589838008153,-6.783655964525493,0.0],[-79.875033564886564,-6.783979966285783,0.0],[-79.874686933291258,-6.783813242083383,0.0],[-79.874173729223727,-6.783612870779015,0.0],[-79.87397264558011,-6.783616803469877,0.0],[-79.873955936293569,-6.783724069987136,0.0],[-79.872821402347626,-6.783832352513145,0.0],[-79.873034238318908,-6.785032133467291,0.0],[-79.871948141490861,-6.787545217575169,0.0]]]]}},
{"type":"Feature","properties":{"ID_UBI_GEO":"140101","COD_SECTOR":"42","ID_SECTOR":"14010142"},"geometry":{"type":"MultiPolygon","coordinates":[[[[-79.869225889929837,-6.745004862231638,0.0],[-79.855909472048239,-6.759137416287409,0.0],[-79.862512680882304,-6.757962286452089,0.0],[-79.862854895069233,-6.758145210707823,0.0],[-79.864748843813203,-6.754939192695629,0.0],[-79.872126320725116,-6.746958351649226,0.0],[-79.871947706869008,-6.746613512050826,0.0],[-79.869225889929837,-6.745004862231638,0.0]]]]}},
{"type":"Feature","properties":{"ID_UBI_GEO":"140101","COD_SECTOR":"60","ID_SECTOR":"14010160"},"geometry":{"type":"MultiPolygon","coordinates":[[[[-79.895648361197928,-6.762980940914131,0.0],[-79.89634303808694,-6.764704378920513,0.0],[-79.897194442647091,-6.768131093420197,0.0],[-79.899411422083432,-6.76742064554099,0.0],[-79.900148760371977,-6.76727166435313,0.0],[-79.900559024368079,-6.767203437603086,0.0],[-79.900894756737529,-6.767243284882157,0.0],[-79.910734309119235,-6.771124082811402,0.0],[-79.91097964982977,-6.770640804992238,0.0],[-79.898383431170714,-6.762875266663096,0.0],[-79.898655401318308,-6.762435634709263,0.0],[-79.8986458784088,-6.761073255771739,0.0],[-79.89656920780665,-6.760976098864616,0.0],[-79.895348499473968,-6.760789769694449,0.0],[-79.895258540267619,-6.761258436295672,0.0],[-79.895298471437698,-6.761698049315317,0.0],[-79.895648361197928,-6.762980940914131,0.0]]]]}},
{"type":"Feature","properties":{"ID_UBI_GEO":"140101","COD_SECTOR":"40","ID_SECTOR":"14010140"},"geometry":{"type":"MultiPolygon","coordinates":[[[[-79.872844122579522,-6.757645209809921,0.0],[-79.876560206026639,-6.762358050611912,0.0],[-79.876785536638124,-6.762934870779953,0.0],[-79.877698401338876,-6.762809835838484,0.0],[-79.879027528196744,-6.762895217735714,0.0],[-79.878955685092137,-6.761432204208417,0.0],[-79.878556627425738,-6.759698494331706,0.0],[-79.877573630654027,-6.758309530472769,0.0],[-79.877024165418945,-6.757767461888977,0.0],[-79.876819290209895,-6.757786434423541,0.0],[-79.8766567916215,-6.757683205427647,0.0],[-79.87640389100622,-6.75771770648942,0.0],[-79.876314998243203,-6.757234681139738,0.0],[-79.875071348522042,-6.757216656427774,0.0],[-79.874752984392089,-6.757155305783119,0.0],[-79.873936690963959,-6.757217811431619,0.0],[-79.872974764491332,-6.757601158990961,0.0],[-79.872844122579522,-6.757645209809921,0.0]]]]}},
{"type":"Feature","properties":{"ID_UBI_GEO":"140101","COD_SECTOR":"53","ID_SECTOR":"14010153"},"geometry":{"type":"MultiPolygon","coordinates":[[[[-79.880386032238533,-6.73800361340038,0.0],[-79.872126320725116,-6.746958351649226,0.0],[-79.879725159639108,-6.751522569789425,0.0],[-79.882535565035127,-6.746757543957205,0.0],[-79.881665716359819,-6.746457955992121,0.0],[-79.882819768935533,-6.744431152844445,0.0],[-79.882469761359346,-6.743185426374737,0.0],[-79.882717133120607,-6.740901870198003,0.0],[-79.884259599948876,-6.739821524645122,0.0],[-79.884532986774417,-6.73605313589849,0.0],[-79.887226104334474,-6.735075718922852,0.0],[-79.887269194064828,-6.734611819349435,0.0],[-79.887091251313151,-6.733379904890322,0.0],[-79.890248075373989,-6.731587943044944,0.0],[-79.890875056155423,-6.735077232524499,0.0],[-79.892945042612794,-6.734857836876392,0.0],[-79.893118481668523,-6.73380772811456,0.0],[-79.89366392708132,-6.733757353741278,0.0],[-79.893695094160506,-6.733402795203141,0.0],[-79.894520945163748,-6.733065554284452,0.0],[-79.894398112544181,-6.732750005167569,0.0],[-79.894775041346861,-6.732620181501082,0.0],[-79.894673098064303,-6.731813190708295,0.0],[-79.895775921045413,-6.731632911321758,0.0],[-79.896269200226854,-6.731513275018912,0.0],[-79.896878172744508,-6.72932258047761,0.0],[-79.891924580769356,-6.727470999846274,0.0],[-79.890734967939224,-6.726422266539334,0.0],[-79.888890467638092,-6.728909084318166,0.0],[-79.880386032238533,-6.73800361340038,0.0]]]]}},
{"type":"Feature","properties":{"ID_UBI_GEO":"140101","COD_SECTOR":"54","ID_SECTOR":"14010154"},"geometry":{"type":"MultiPolygon","coordinates":[[[[-79.888221106778104,-6.724186443389263,0.0],[-79.869225889929837,-6.745004862231638,0.0],[-79.871947706869008,-6.746613512050826,0.0],[-79.872126320725116,-6.746958351649226,0.0],[-79.880386032238533,-6.73800361340038,0.0],[-79.888890467638092,-6.728909084318166,0.0],[-79.890734967939224,-6.726422266539334,0.0],[-79.888221106778104,-6.724186443389263,0.0]]]]}}
]
}
